[{"name":"北京市","citys":[{"name":"北京市","district":[{"name":"东城区","postcode":"100000"},{"name":"西城区","postcode":"100000"},{"name":"崇文区","postcode":"100000"},{"name":"宣武区","postcode":"100000"},{"name":"朝阳区","postcode":"100000"},{"name":"丰台区","postcode":"100000"},{"name":"石景山区","postcode":"100000"},{"name":"海淀区","postcode":"100000"},{"name":"门头沟区","postcode":"102300"},{"name":"房山区","postcode":"102400"},{"name":"通州区","postcode":"101100"},{"name":"顺义区","postcode":"101300"},{"name":"昌平区","postcode":"102200"},{"name":"大兴区","postcode":"102600"},{"name":"平谷区","postcode":"101200"},{"name":"怀柔区","postcode":"101400"},{"name":"密云县","postcode":"101500"},{"name":"延庆县","postcode":"102100"}]}]},{"name":"天津市","citys":[{"name":"天津市","district":[{"name":"和平区","postcode":"300000"},{"name":"河东区","postcode":"300000"},{"name":"河西区","postcode":"300000"},{"name":"南开区","postcode":"300000"},{"name":"河北区","postcode":"300000"},{"name":"红桥区","postcode":"300000"},{"name":"塘沽区","postcode":"300450"},{"name":"汉沽区","postcode":"300480"},{"name":"大港区","postcode":"300000"},{"name":"东丽区","postcode":"300000"},{"name":"西青区","postcode":"300000"},{"name":"津南区","postcode":"300000"},{"name":"北辰区","postcode":"300000"},{"name":"武清区","postcode":"301700"},{"name":"宝坻区","postcode":"301800"},{"name":"宁河县","postcode":"301500"},{"name":"静海县","postcode":"301600"},{"name":"蓟县","postcode":"301900"}]}]},{"name":"河北省","citys":[{"name":"石家庄市","district":[{"name":"长安区","postcode":"50000"},{"name":"桥东区","postcode":"50000"},{"name":"桥西区","postcode":"50000"},{"name":"新华区","postcode":"50000"},{"name":"井陉矿区","postcode":"50100"},{"name":"井陉县","postcode":"50300"},{"name":"正定县","postcode":"50800"},{"name":"栾城县","postcode":"51430"},{"name":"行唐县","postcode":"50600"},{"name":"灵寿县","postcode":"50500"},{"name":"高邑县","postcode":"51330"},{"name":"深泽县","postcode":"52500"},{"name":"赞皇县","postcode":"51230"},{"name":"无极县","postcode":"52400"},{"name":"平山县","postcode":"50400"},{"name":"元氏县","postcode":"51130"},{"name":"赵县","postcode":"51530"},{"name":"辛集市","postcode":"52300"},{"name":"藁城市","postcode":"52160"},{"name":"晋州市","postcode":"52200"},{"name":"新乐市","postcode":"50700"},{"name":"鹿泉市","postcode":"50200"}]},{"name":"唐山市","district":[{"name":"路南区","postcode":"63000"},{"name":"路北区","postcode":"63000"},{"name":"古冶区","postcode":"63100"},{"name":"开平区","postcode":"63000"},{"name":"新区","postcode":"63000"},{"name":"丰润区","postcode":"63000"},{"name":"滦县","postcode":"63700"},{"name":"滦南县","postcode":"63500"},{"name":"乐亭县","postcode":"63600"},{"name":"迁西县","postcode":"64300"},{"name":"玉田县","postcode":"64100"},{"name":"唐海县","postcode":"63200"},{"name":"遵化市","postcode":"64200"},{"name":"丰南区","postcode":"63300"},{"name":"迁安市","postcode":"64400"}]},{"name":"秦皇岛市","district":[{"name":"海港区","postcode":"66000"},{"name":"山海关区","postcode":"66200"},{"name":"北戴河区","postcode":"66100"},{"name":"青龙满族自治县","postcode":"66500"},{"name":"昌黎县","postcode":"66600"},{"name":"抚宁县","postcode":"66300"},{"name":"卢龙县","postcode":"66400"}]},{"name":"邯郸市","district":[{"name":"邯山区","postcode":"56000"},{"name":"丛台区","postcode":"56000"},{"name":"复兴区","postcode":"56000"},{"name":"峰峰矿区","postcode":"56200"},{"name":"邯郸县","postcode":"56000"},{"name":"临漳县","postcode":"56600"},{"name":"成安县","postcode":"56700"},{"name":"大名县","postcode":"56900"},{"name":"涉县","postcode":"56400"},{"name":"磁县","postcode":"56500"},{"name":"肥乡县","postcode":"57550"},{"name":"永年县","postcode":"57150"},{"name":"邱县","postcode":"57450"},{"name":"鸡泽县","postcode":"57350"},{"name":"广平县","postcode":"57650"},{"name":"馆陶县","postcode":"57750"},{"name":"魏县","postcode":"56800"},{"name":"曲周县","postcode":"57250"},{"name":"武安市","postcode":"56300"}]},{"name":"邢台市","district":[{"name":"桥东区","postcode":"54000"},{"name":"桥西区","postcode":"54000"},{"name":"邢台县","postcode":"54000"},{"name":"临城县","postcode":"54300"},{"name":"内丘县","postcode":"54200"},{"name":"柏乡县","postcode":"55450"},{"name":"隆尧县","postcode":"55350"},{"name":"任县","postcode":"55150"},{"name":"南和县","postcode":"54400"},{"name":"宁晋县","postcode":"55550"},{"name":"巨鹿县","postcode":"55250"},{"name":"新河县","postcode":"51730"},{"name":"广宗县","postcode":"54600"},{"name":"平乡县","postcode":"54500"},{"name":"威县","postcode":"54700"},{"name":"清河县","postcode":"54800"},{"name":"临西县","postcode":"54900"},{"name":"南宫市","postcode":"51800"},{"name":"沙河市","postcode":"54100"}]},{"name":"保定市","district":[{"name":"新市区","postcode":"71000"},{"name":"北市区","postcode":"71000"},{"name":"南市区","postcode":"71000"},{"name":"满城县","postcode":"72150"},{"name":"清苑县","postcode":"71100"},{"name":"涞水县","postcode":"74100"},{"name":"阜平县","postcode":"73200"},{"name":"徐水县","postcode":"72550"},{"name":"定兴县","postcode":"72650"},{"name":"唐县","postcode":"72350"},{"name":"高阳县","postcode":"71500"},{"name":"容城县","postcode":"71700"},{"name":"涞源县","postcode":"102900"},{"name":"望都县","postcode":"72450"},{"name":"安新县","postcode":"71600"},{"name":"易县","postcode":"74200"},{"name":"曲阳县","postcode":"73100"},{"name":"蠡县","postcode":"71400"},{"name":"顺平县","postcode":"72250"},{"name":"博野县","postcode":"71300"},{"name":"雄县","postcode":"71800"},{"name":"涿州市","postcode":"72750"},{"name":"定州市","postcode":"73000"},{"name":"安国市","postcode":"71200"},{"name":"高碑店市","postcode":"74000"}]},{"name":"张家口市","district":[{"name":"桥东区","postcode":"75000"},{"name":"桥西区","postcode":"75000"},{"name":"宣化区","postcode":"75000"},{"name":"下花园区","postcode":"75300"},{"name":"宣化县","postcode":"75100"},{"name":"张北县","postcode":"76450"},{"name":"康保县","postcode":"76650"},{"name":"沽源县","postcode":"76550"},{"name":"尚义县","postcode":"76750"},{"name":"蔚县","postcode":"75700"},{"name":"阳原县","postcode":"75800"},{"name":"怀安县","postcode":"76150"},{"name":"万全县","postcode":"76250"},{"name":"怀来县","postcode":"75400"},{"name":"涿鹿县","postcode":"75600"},{"name":"赤城县","postcode":"75500"},{"name":"崇礼县","postcode":"76350"}]},{"name":"承德市","district":[{"name":"双桥区","postcode":"67000"},{"name":"双滦区","postcode":"67000"},{"name":"鹰手营子矿区","postcode":"67200"},{"name":"承德县","postcode":"67400"},{"name":"兴隆县","postcode":"67300"},{"name":"平泉县","postcode":"67500"},{"name":"滦平县","postcode":"68250"},{"name":"隆化县","postcode":"68150"},{"name":"丰宁满族自治县","postcode":"68350"},{"name":"宽城满族自治县","postcode":"67600"},{"name":"围场满族蒙古族自治县","postcode":"68450"}]},{"name":"沧州市","district":[{"name":"新华区","postcode":"61000"},{"name":"运河区","postcode":"61000"},{"name":"沧县","postcode":"61000"},{"name":"青县","postcode":"62650"},{"name":"东光县","postcode":"61600"},{"name":"海兴县","postcode":"61200"},{"name":"盐山县","postcode":"61300"},{"name":"肃宁县","postcode":"62350"},{"name":"南皮县","postcode":"61500"},{"name":"吴桥县","postcode":"61800"},{"name":"献县","postcode":"62250"},{"name":"孟村回族自治县","postcode":"61400"},{"name":"泊头市","postcode":"62150"},{"name":"任丘市","postcode":"62550"},{"name":"黄骅市","postcode":"61100"},{"name":"河间市","postcode":"62450"}]},{"name":"廊坊市","district":[{"name":"安次区","postcode":"65000"},{"name":"固安县","postcode":"65500"},{"name":"永清县","postcode":"65600"},{"name":"香河县","postcode":"65400"},{"name":"大城县","postcode":"65900"},{"name":"文安县","postcode":"65800"},{"name":"大厂回族自治县","postcode":"65300"},{"name":"霸州市","postcode":"65700"},{"name":"三河市","postcode":"65200"}]},{"name":"衡水市","district":[{"name":"桃城区","postcode":"53000"},{"name":"枣强县","postcode":"53100"},{"name":"武邑县","postcode":"53400"},{"name":"武强县","postcode":"53300"},{"name":"饶阳县","postcode":"53900"},{"name":"安平县","postcode":"53600"},{"name":"故城县","postcode":"53800"},{"name":"景县","postcode":"53500"},{"name":"阜城县","postcode":"53700"},{"name":"冀州市","postcode":"53200"},{"name":"深州市","postcode":"52800"}]}]},{"name":"山西省","citys":[{"name":"太原市","district":[{"name":"小店区","postcode":"30000"},{"name":"迎泽区","postcode":"30000"},{"name":"杏花岭区","postcode":"30000"},{"name":"尖草坪区","postcode":"30000"},{"name":"万柏林区","postcode":"30000"},{"name":"晋源区","postcode":"30000"},{"name":"清徐县","postcode":"30400"},{"name":"阳曲县","postcode":"30100"},{"name":"娄烦县","postcode":"30300"},{"name":"古交市","postcode":"30200"}]},{"name":"大同市","district":[{"name":"大同城区","postcode":"37000"},{"name":"大同矿区","postcode":"37000"},{"name":"南郊区","postcode":"37000"},{"name":"新荣区","postcode":"37000"},{"name":"阳高县","postcode":"38100"},{"name":"天镇县","postcode":"38200"},{"name":"广灵县","postcode":"37500"},{"name":"灵丘县","postcode":"34400"},{"name":"浑源县","postcode":"37400"},{"name":"左云县","postcode":"37100"},{"name":"大同县","postcode":"37300"}]},{"name":"阳泉市","district":[{"name":"阳泉城区","postcode":"45000"},{"name":"阳泉矿区","postcode":"45000"},{"name":"阳泉郊区","postcode":"45000"},{"name":"平定县","postcode":"45200"},{"name":"盂县","postcode":"45100"}]},{"name":"长治市","district":[{"name":"长治城区","postcode":"46000"},{"name":"长治郊区","postcode":"46000"},{"name":"长治县","postcode":"47100"},{"name":"襄垣县","postcode":"46200"},{"name":"屯留县","postcode":"46100"},{"name":"平顺县","postcode":"47400"},{"name":"黎城县","postcode":"47600"},{"name":"壶关县","postcode":"47300"},{"name":"长子县","postcode":"46600"},{"name":"武乡县","postcode":"46300"},{"name":"沁县","postcode":"46400"},{"name":"沁源县","postcode":"46500"},{"name":"潞城市","postcode":"47500"}]},{"name":"晋城市","district":[{"name":"晋城城区","postcode":"48000"},{"name":"沁水县","postcode":"48200"},{"name":"阳城县","postcode":"48100"},{"name":"陵川县","postcode":"48300"},{"name":"泽州县","postcode":"48000"},{"name":"高平市","postcode":"46700"}]},{"name":"朔州市","district":[{"name":"朔城区","postcode":"38500"},{"name":"平鲁区","postcode":"38500"},{"name":"山阴县","postcode":"38400"},{"name":"应县","postcode":"37600"},{"name":"右玉县","postcode":"37200"},{"name":"怀仁县","postcode":"38300"}]},{"name":"忻州市","district":[{"name":"忻府区","postcode":"34000"},{"name":"原平市","postcode":"34100"},{"name":"定襄县","postcode":"35400"},{"name":"五台县","postcode":"35500"},{"name":"代县","postcode":"34200"},{"name":"繁峙县","postcode":"34300"},{"name":"宁武县","postcode":"36000"},{"name":"静乐县","postcode":"35100"},{"name":"神池县","postcode":"36100"},{"name":"五寨县","postcode":"36200"},{"name":"岢岚县","postcode":"36300"},{"name":"河曲县","postcode":"36500"},{"name":"保德县","postcode":"36600"},{"name":"偏关县","postcode":"36400"}]},{"name":"吕梁市","district":[{"name":"离石区","postcode":"33000"},{"name":"孝义市","postcode":"32300"},{"name":"汾阳市","postcode":"32200"},{"name":"文水县","postcode":"32100"},{"name":"交城县","postcode":"30500"},{"name":"兴县","postcode":"35300"},{"name":"临县","postcode":"33200"},{"name":"柳林县","postcode":"33300"},{"name":"石楼县","postcode":"32500"},{"name":"岚县","postcode":"35200"},{"name":"方山县","postcode":"33100"},{"name":"中阳县","postcode":"33400"},{"name":"交口县","postcode":"32400"}]},{"name":"晋中市","district":[{"name":"榆次区","postcode":"30600"},{"name":"介休市","postcode":"31200"},{"name":"榆社县","postcode":"31800"},{"name":"左权县","postcode":"32600"},{"name":"和顺县","postcode":"32700"},{"name":"昔阳县","postcode":"45300"},{"name":"寿阳县","postcode":"31700"},{"name":"太谷县","postcode":"30800"},{"name":"祁县","postcode":"30900"},{"name":"平遥县","postcode":"31100"},{"name":"灵石县","postcode":"31300"}]},{"name":"临汾市","district":[{"name":"临汾市","postcode":"41000"},{"name":"侯马市","postcode":"43000"},{"name":"霍州市","postcode":"31400"},{"name":"曲沃县","postcode":"43400"},{"name":"翼城县","postcode":"43500"},{"name":"襄汾县","postcode":"41500"},{"name":"洪洞县","postcode":"31600"},{"name":"古县","postcode":"42400"},{"name":"安泽县","postcode":"42500"},{"name":"浮山县","postcode":"42600"},{"name":"吉县","postcode":"42200"},{"name":"乡宁县","postcode":"42100"},{"name":"蒲县","postcode":"41200"},{"name":"大宁县","postcode":"42300"},{"name":"永和县","postcode":"41400"},{"name":"隰县","postcode":"41300"},{"name":"汾西县","postcode":"31500"}]},{"name":"运城市","district":[{"name":"运城市","postcode":"44000"},{"name":"永济市","postcode":"44500"},{"name":"河津市","postcode":"43300"},{"name":"芮城县","postcode":"44600"},{"name":"临猗县","postcode":"44100"},{"name":"万荣县","postcode":"44200"},{"name":"新绛县","postcode":"43100"},{"name":"稷山县","postcode":"43200"},{"name":"闻喜县","postcode":"43800"},{"name":"夏县","postcode":"44400"},{"name":"绛县","postcode":"43600"},{"name":"平陆县","postcode":"44300"},{"name":"垣曲县","postcode":"43700"}]}]},{"name":"内蒙古","citys":[{"name":"呼和浩特市","district":[{"name":"新城区","postcode":"10000"},{"name":"回民区","postcode":"10000"},{"name":"玉泉区","postcode":"10000"},{"name":"土默特左旗","postcode":"10100"},{"name":"托克托县","postcode":"10200"},{"name":"和林格尔县","postcode":"11500"},{"name":"清水河县","postcode":"11600"},{"name":"武川县","postcode":"11700"}]},{"name":"包头市","district":[{"name":"东河区","postcode":"14000"},{"name":"昆都伦区","postcode":"14000"},{"name":"青山区","postcode":"14000"},{"name":"石拐区","postcode":"14070"},{"name":"白云矿区","postcode":"14000"},{"name":"九原区","postcode":"14200"},{"name":"土默特右旗","postcode":"14100"},{"name":"固阳县","postcode":"14200"},{"name":"达尔罕茂明安联合旗","postcode":"14500"}]},{"name":"乌海市","district":[{"name":"海勃湾区","postcode":"16000"},{"name":"海南区","postcode":"16000"},{"name":"乌达区","postcode":"16000"}]},{"name":"赤峰市","district":[{"name":"红山区","postcode":"24000"},{"name":"元宝山区","postcode":"24000"},{"name":"松山区","postcode":"24000"},{"name":"阿鲁科尔沁旗","postcode":"25500"},{"name":"巴林左旗","postcode":"25450"},{"name":"巴林右旗","postcode":"25150"},{"name":"林西县","postcode":"25250"},{"name":"克什克腾旗","postcode":"25350"},{"name":"翁牛特旗","postcode":"24500"},{"name":"喀喇沁旗","postcode":"24400"},{"name":"宁城县","postcode":"24200"},{"name":"敖汉旗","postcode":"24300"}]},{"name":"呼伦贝尔市","district":[{"name":"海拉尔区","postcode":"21000"},{"name":"满洲里市","postcode":"21400"},{"name":"扎兰屯市","postcode":"162650"},{"name":"牙克石市","postcode":"22150"},{"name":"根河市","postcode":"22350"},{"name":"额尔古纳市","postcode":"22250"},{"name":"阿荣旗","postcode":"162750"},{"name":"莫力达瓦达斡尔族自治旗","postcode":"162850"},{"name":"鄂伦春自治旗","postcode":"22450"},{"name":"鄂温克族自治旗","postcode":"21100"},{"name":"新巴尔虎右旗","postcode":"21300"},{"name":"新巴尔虎左旗","postcode":"21200"},{"name":"陈巴尔虎旗","postcode":"21500"}]},{"name":"兴安盟","district":[{"name":"乌兰浩特市","postcode":"137400"},{"name":"阿尔山市","postcode":"137400"},{"name":"科尔沁右翼前旗","postcode":"137400"},{"name":"科尔沁右翼中旗","postcode":"29400"},{"name":"扎赉特旗","postcode":"137600"},{"name":"突泉县","postcode":"137500"}]},{"name":"通辽市","district":[{"name":"科尔沁区","postcode":"28000"},{"name":"霍林郭勒市","postcode":"29200"},{"name":"科尔沁左翼中旗","postcode":"29300"},{"name":"科尔沁左翼后旗","postcode":"28100"},{"name":"开鲁县","postcode":"28400"},{"name":"库伦旗","postcode":"28200"},{"name":"奈曼旗","postcode":"28300"},{"name":"扎鲁特旗","postcode":"29100"}]},{"name":"锡林郭勒盟","district":[{"name":"二连浩特市","postcode":"12600"},{"name":"锡林浩特市","postcode":"26000"},{"name":"阿巴嘎旗","postcode":"11400"},{"name":"苏尼特左旗","postcode":"11300"},{"name":"苏尼特右旗","postcode":"11200"},{"name":"东乌珠穆沁旗","postcode":"26300"},{"name":"西乌珠穆沁旗","postcode":"26200"},{"name":"太仆寺旗","postcode":"27000"},{"name":"镶黄旗","postcode":"13250"},{"name":"正镶白旗","postcode":"13800"},{"name":"正蓝旗","postcode":"27200"},{"name":"多伦县","postcode":"27300"}]},{"name":"乌兰察布市","district":[{"name":"集宁区","postcode":"12000"},{"name":"丰镇市","postcode":"12100"},{"name":"卓资县","postcode":"12300"},{"name":"化德县","postcode":"13350"},{"name":"商都县","postcode":"13400"},{"name":"兴和县","postcode":"13650"},{"name":"凉城县","postcode":"13750"},{"name":"察哈尔右翼前旗","postcode":"12200"},{"name":"察哈尔右翼中旗","postcode":"13500"},{"name":"察哈尔右翼后旗","postcode":"12400"},{"name":"四子王旗","postcode":"11800"}]},{"name":"鄂尔多斯市","district":[{"name":"东胜区","postcode":"17000"},{"name":"达拉特旗","postcode":"17200"},{"name":"准格尔旗","postcode":"17100"},{"name":"鄂托克前旗","postcode":"16200"},{"name":"鄂托克旗","postcode":"16100"},{"name":"杭锦旗","postcode":"17400"},{"name":"乌审旗","postcode":"17300"},{"name":"伊金霍洛旗","postcode":"17200"}]},{"name":"巴彦淖尔市","district":[{"name":"临河区","postcode":"15000"},{"name":"五原县","postcode":"15100"},{"name":"磴口县","postcode":"15200"},{"name":"乌拉特前旗","postcode":"14400"},{"name":"乌拉特中旗","postcode":"15300"},{"name":"乌拉特后旗","postcode":"15500"},{"name":"杭锦后旗","postcode":"15400"}]},{"name":"阿拉善盟","district":[{"name":"阿拉善左旗","postcode":"750300"},{"name":"阿拉善右旗","postcode":"737300"},{"name":"额济纳旗","postcode":"735400"}]}]},{"name":"辽宁省","citys":[{"name":"沈阳市","district":[{"name":"和平区","postcode":"110000"},{"name":"沈河区","postcode":"110000"},{"name":"大东区","postcode":"110000"},{"name":"皇姑区","postcode":"110000"},{"name":"铁西区","postcode":"110020"},{"name":"苏家屯区","postcode":"110100"},{"name":"东陵区","postcode":"110000"},{"name":"新城子区","postcode":"110000"},{"name":"于洪区","postcode":"110000"},{"name":"辽中县","postcode":"110200"},{"name":"康平县","postcode":"110500"},{"name":"法库县","postcode":"110400"},{"name":"新民市","postcode":"110300"}]},{"name":"大连市","district":[{"name":"中山区","postcode":"116000"},{"name":"西岗区","postcode":"116000"},{"name":"沙河口区","postcode":"116000"},{"name":"甘井子区","postcode":"116000"},{"name":"旅顺口区","postcode":"116000"},{"name":"金州区","postcode":"116000"},{"name":"长海县","postcode":"116500"},{"name":"瓦房店市","postcode":"116300"},{"name":"普兰店市","postcode":"116200"},{"name":"庄河市","postcode":"116400"}]},{"name":"鞍山市","district":[{"name":"铁东区","postcode":"114000"},{"name":"铁西区","postcode":"114000"},{"name":"立山区","postcode":"114000"},{"name":"千山区","postcode":"114000"},{"name":"台安县","postcode":"114100"},{"name":"岫岩满族自治县","postcode":"118400"},{"name":"海城市","postcode":"114200"}]},{"name":"抚顺市","district":[{"name":"新抚区","postcode":"113008"},{"name":"东洲区","postcode":"113004"},{"name":"望花区","postcode":"113001"},{"name":"顺城区","postcode":"113006"},{"name":"抚顺县","postcode":"113006"},{"name":"新宾满族自治县","postcode":"113200"},{"name":"清原满族自治县","postcode":"113300"}]},{"name":"本溪市","district":[{"name":"平山区","postcode":"117000"},{"name":"溪湖区","postcode":"117000"},{"name":"明山区","postcode":"117000"},{"name":"南芬区","postcode":"117000"},{"name":"本溪满族自治县","postcode":"117100"},{"name":"桓仁满族自治县","postcode":"117200"}]},{"name":"丹东市","district":[{"name":"元宝区","postcode":"118000"},{"name":"振兴区","postcode":"118000"},{"name":"振安区","postcode":"118000"},{"name":"宽甸满族自治县","postcode":"118200"},{"name":"东港市","postcode":"118300"},{"name":"凤城市","postcode":"118100"}]},{"name":"锦州市","district":[{"name":"古塔区","postcode":"121000"},{"name":"凌河区","postcode":"121000"},{"name":"太和区","postcode":"121000"},{"name":"黑山县","postcode":"121400"},{"name":"义县","postcode":"121100"},{"name":"凌海市","postcode":"121200"},{"name":"北宁市","postcode":"121300"}]},{"name":"营口市","district":[{"name":"站前区","postcode":"115000"},{"name":"西市区","postcode":"115000"},{"name":"鲅鱼圈区","postcode":"115000"},{"name":"老边区","postcode":"115000"},{"name":"盖州市","postcode":"115200"},{"name":"大石桥市","postcode":"115100"}]},{"name":"阜新市","district":[{"name":"海州区","postcode":"123000"},{"name":"新邱区","postcode":"123000"},{"name":"太平区","postcode":"123000"},{"name":"清河门区","postcode":"123000"},{"name":"细河区","postcode":"123000"},{"name":"阜新蒙古族自治县","postcode":"123100"},{"name":"彰武县","postcode":"123200"}]},{"name":"辽阳市","district":[{"name":"白塔区","postcode":"111000"},{"name":"文圣区","postcode":"111000"},{"name":"宏伟区","postcode":"111000"},{"name":"弓长岭区","postcode":"111000"},{"name":"太子河区","postcode":"111000"},{"name":"辽阳县","postcode":"111200"},{"name":"灯塔市","postcode":"111300"}]},{"name":"盘锦市","district":[{"name":"双台子区","postcode":"124000"},{"name":"兴隆台区","postcode":"124000"},{"name":"大洼县","postcode":"124200"},{"name":"盘山县","postcode":"124100"}]},{"name":"铁岭市","district":[{"name":"银州区","postcode":"112000"},{"name":"清河区","postcode":"112000"},{"name":"铁岭县","postcode":"112600"},{"name":"西丰县","postcode":"112400"},{"name":"昌图县","postcode":"112500"},{"name":"调兵山市","postcode":"112700"},{"name":"开原市","postcode":"112300"}]},{"name":"朝阳市","district":[{"name":"双塔区","postcode":"122000"},{"name":"龙城区","postcode":"122000"},{"name":"朝阳县","postcode":"122000"},{"name":"建平县","postcode":"122400"},{"name":"喀喇沁左翼蒙古族自治县","postcode":"122300"},{"name":"北票市","postcode":"122100"},{"name":"凌源市","postcode":"122500"}]},{"name":"葫芦岛市","district":[{"name":"连山区","postcode":"125000"},{"name":"龙港区","postcode":"125000"},{"name":"南票区","postcode":"125000"},{"name":"绥中县","postcode":"125200"},{"name":"建昌县","postcode":"125300"},{"name":"兴城市","postcode":"125100"}]}]},{"name":"吉林省","citys":[{"name":"长春市","district":[{"name":"南关区","postcode":"130000"},{"name":"宽城区","postcode":"130000"},{"name":"朝阳区","postcode":"130000"},{"name":"二道区","postcode":"130000"},{"name":"绿园区","postcode":"130000"},{"name":"双阳区","postcode":"130600"},{"name":"农安县","postcode":"130200"},{"name":"九台市","postcode":"130500"},{"name":"榆树市","postcode":"130400"},{"name":"德惠市","postcode":"130300"}]},{"name":"吉林市","district":[{"name":"昌邑区","postcode":"132000"},{"name":"龙潭区","postcode":"132000"},{"name":"船营区","postcode":"132000"},{"name":"丰满区","postcode":"132000"},{"name":"永吉县","postcode":"132100"},{"name":"蛟河市","postcode":"132500"},{"name":"桦甸市","postcode":"132400"},{"name":"舒兰市","postcode":"132600"},{"name":"磐石市","postcode":"132300"}]},{"name":"四平市","district":[{"name":"铁西区","postcode":"136000"},{"name":"铁东区","postcode":"136000"},{"name":"梨树县","postcode":"136500"},{"name":"伊通满族自治县","postcode":"130700"},{"name":"公主岭市","postcode":"136100"},{"name":"双辽市","postcode":"136400"}]},{"name":"辽源市","district":[{"name":"龙山区","postcode":"136200"},{"name":"西安区","postcode":"136200"},{"name":"东丰县","postcode":"136300"},{"name":"东辽县","postcode":"136600"}]},{"name":"通化市","district":[{"name":"东昌区","postcode":"134000"},{"name":"二道江区","postcode":"134000"},{"name":"通化县","postcode":"134100"},{"name":"辉南县","postcode":"135100"},{"name":"柳河县","postcode":"135300"},{"name":"梅河口市","postcode":"135000"},{"name":"集安市","postcode":"134200"}]},{"name":"白山市","district":[{"name":"八道江区","postcode":"134300"},{"name":"抚松县","postcode":"134500"},{"name":"靖宇县","postcode":"135200"},{"name":"长白朝鲜族自治县","postcode":"134400"},{"name":"江源县","postcode":"134700"},{"name":"临江市","postcode":"134600"}]},{"name":"松原市","district":[{"name":"宁江区","postcode":"138000"},{"name":"前郭尔罗斯蒙古族自治县","postcode":"131100"},{"name":"长岭县","postcode":"131500"},{"name":"乾安县","postcode":"131400"},{"name":"扶余县","postcode":"131200"}]},{"name":"白城市","district":[{"name":"洮北区","postcode":"137000"},{"name":"镇赉县","postcode":"137300"},{"name":"通榆县","postcode":"137200"},{"name":"洮南市","postcode":"137100"},{"name":"大安市","postcode":"131300"}]},{"name":"延边朝鲜族自治州","district":[{"name":"延吉市","postcode":"133000"},{"name":"图们市","postcode":"133100"},{"name":"敦化市","postcode":"133700"},{"name":"珲春市","postcode":"133300"},{"name":"龙井市","postcode":"133400"},{"name":"和龙市","postcode":"133500"},{"name":"汪清县","postcode":"133200"},{"name":"安图县","postcode":"133600"}]}]},{"name":"黑龙江省","citys":[{"name":"哈尔滨市","district":[{"name":"道里区","postcode":"150000"},{"name":"南岗区","postcode":"150000"},{"name":"道外区","postcode":"150000"},{"name":"松北区","postcode":"150000"},{"name":"香坊区","postcode":"150000"},{"name":"阿城区","postcode":"150300"},{"name":"平房区","postcode":"150000"},{"name":"呼兰区","postcode":"150500"},{"name":"依兰县","postcode":"154800"},{"name":"方正县","postcode":"150800"},{"name":"宾县","postcode":"150400"},{"name":"巴彦县","postcode":"151800"},{"name":"木兰县","postcode":"151900"},{"name":"通河县","postcode":"150900"},{"name":"延寿县","postcode":"150700"},{"name":"双城市","postcode":"150100"},{"name":"尚志市","postcode":"150600"},{"name":"五常市","postcode":"150200"}]},{"name":"齐齐哈尔市","district":[{"name":"龙沙区","postcode":"161000"},{"name":"建华区","postcode":"161000"},{"name":"铁锋区","postcode":"161000"},{"name":"昂昂溪区","postcode":"161000"},{"name":"富拉尔基区","postcode":"161000"},{"name":"碾子山区","postcode":"161000"},{"name":"梅里斯达斡尔族区","postcode":"161000"},{"name":"龙江县","postcode":"161100"},{"name":"依安县","postcode":"161500"},{"name":"泰来县","postcode":"162400"},{"name":"甘南县","postcode":"162100"},{"name":"富裕县","postcode":"161200"},{"name":"克山县","postcode":"161600"},{"name":"克东县","postcode":"164800"},{"name":"拜泉县","postcode":"164700"},{"name":"讷河市","postcode":"161300"}]},{"name":"鸡西市","district":[{"name":"鸡冠区","postcode":"158100"},{"name":"恒山区","postcode":"158100"},{"name":"滴道区","postcode":"158100"},{"name":"梨树区","postcode":"158100"},{"name":"城子河区","postcode":"158100"},{"name":"麻山区","postcode":"158100"},{"name":"鸡东县","postcode":"158200"},{"name":"虎林市","postcode":"158400"},{"name":"密山市","postcode":"158300"}]},{"name":"鹤岗市","district":[{"name":"向阳区","postcode":"154100"},{"name":"工农区","postcode":"154100"},{"name":"南山区","postcode":"154100"},{"name":"兴安区","postcode":"154100"},{"name":"东山区","postcode":"154100"},{"name":"兴山区","postcode":"154100"},{"name":"萝北县","postcode":"154200"},{"name":"绥滨县","postcode":"156200"}]},{"name":"双鸭山市","district":[{"name":"尖山区","postcode":"155100"},{"name":"岭东区","postcode":"155100"},{"name":"四方台区","postcode":"155100"},{"name":"宝山区","postcode":"155100"},{"name":"集贤县","postcode":"155900"},{"name":"友谊县","postcode":"155800"},{"name":"宝清县","postcode":"155600"},{"name":"饶河县","postcode":"155700"}]},{"name":"大庆市","district":[{"name":"萨尔图区","postcode":"163000"},{"name":"龙凤区","postcode":"163000"},{"name":"让胡路区","postcode":"163000"},{"name":"红岗区","postcode":"163000"},{"name":"大同区","postcode":"163000"},{"name":"肇州县","postcode":"166400"},{"name":"肇源县","postcode":"166500"},{"name":"林甸县","postcode":"166300"},{"name":"杜尔伯特蒙古族自治县","postcode":"166200"}]},{"name":"伊春市","district":[{"name":"伊春区","postcode":"153000"},{"name":"南岔区","postcode":"153000"},{"name":"友好区","postcode":"153000"},{"name":"西林区","postcode":"153000"},{"name":"翠峦区","postcode":"153000"},{"name":"新青区","postcode":"153000"},{"name":"美溪区","postcode":"153000"},{"name":"金山屯区","postcode":"153000"},{"name":"五营区","postcode":"153000"},{"name":"乌马河区","postcode":"153000"},{"name":"汤旺河区","postcode":"153000"},{"name":"带岭区","postcode":"153000"},{"name":"乌伊岭区","postcode":"153000"},{"name":"红星区","postcode":"153000"},{"name":"上甘岭区","postcode":"153000"},{"name":"嘉荫县","postcode":"153200"},{"name":"铁力市","postcode":"152500"}]},{"name":"佳木斯市","district":[{"name":"向阳区","postcode":"154000"},{"name":"前进区","postcode":"154000"},{"name":"东风区","postcode":"154000"},{"name":"佳木斯郊区","postcode":"154004"},{"name":"桦南县","postcode":"154400"},{"name":"桦川县","postcode":"154300"},{"name":"汤原县","postcode":"154700"},{"name":"抚远县","postcode":"156500"},{"name":"同江市","postcode":"156400"},{"name":"富锦市","postcode":"156100"}]},{"name":"七台河市","district":[{"name":"新兴区","postcode":"154600"},{"name":"桃山区","postcode":"154600"},{"name":"茄子河区","postcode":"154600"},{"name":"勃利县","postcode":"154500"}]},{"name":"牡丹江市","district":[{"name":"东安区","postcode":"157000"},{"name":"阳明区","postcode":"157000"},{"name":"爱民区","postcode":"157000"},{"name":"西安区","postcode":"157000"},{"name":"东宁县","postcode":"157200"},{"name":"林口县","postcode":"157600"},{"name":"绥芬河市","postcode":"157300"},{"name":"海林市","postcode":"157100"},{"name":"宁安市","postcode":"157400"},{"name":"穆棱市","postcode":"157500"}]},{"name":"黑河市","district":[{"name":"爱辉区","postcode":"164300"},{"name":"嫩江县","postcode":"161400"},{"name":"逊克县","postcode":"164400"},{"name":"孙吴县","postcode":"164200"},{"name":"北安市","postcode":"164000"},{"name":"五大连池市","postcode":"164100"}]},{"name":"绥化市","district":[{"name":"绥化市","postcode":"152000"},{"name":"安达市","postcode":"151400"},{"name":"肇东市","postcode":"151100"},{"name":"海伦市","postcode":"152300"},{"name":"望奎县","postcode":"152100"},{"name":"兰西县","postcode":"151500"},{"name":"青冈县","postcode":"151600"},{"name":"庆安县","postcode":"152400"},{"name":"明水县","postcode":"151700"},{"name":"绥棱县","postcode":"152200"}]},{"name":"大兴安岭地区","district":[{"name":"呼玛县","postcode":"165100"},{"name":"塔河县","postcode":"165200"},{"name":"漠河县","postcode":"165300"}]}]},{"name":"上海市","citys":[{"name":"上海市","district":[{"name":"浦东新区","postcode":"200120"},{"name":"徐汇区","postcode":"200000"},{"name":"黄浦区","postcode":"200000"},{"name":"杨浦区","postcode":"200000"},{"name":"虹口区","postcode":"200000"},{"name":"闵行区","postcode":"201100"},{"name":"长宁区","postcode":"200000"},{"name":"普陀区","postcode":"200000"},{"name":"宝山区","postcode":"201900"},{"name":"静安区","postcode":"200000"},{"name":"闸北区","postcode":"200000"},{"name":"卢湾区","postcode":"200000"},{"name":"松江区","postcode":"201600"},{"name":"嘉定区","postcode":"201800"},{"name":"南汇区","postcode":"201300"},{"name":"金山区","postcode":"201500"},{"name":"青浦区","postcode":"201700"},{"name":"奉贤区","postcode":"201400"},{"name":"崇明县","postcode":"202150"}]}]},{"name":"江苏省","citys":[{"name":"南京市","district":[{"name":"玄武区","postcode":"210000"},{"name":"白下区","postcode":"210000"},{"name":"秦淮区","postcode":"210000"},{"name":"建邺区","postcode":"210000"},{"name":"鼓楼区","postcode":"210000"},{"name":"下关区","postcode":"210000"},{"name":"浦口区","postcode":"210000"},{"name":"栖霞区","postcode":"210000"},{"name":"雨花台区","postcode":"210000"},{"name":"江宁区","postcode":"211100"},{"name":"六合区","postcode":"211500"},{"name":"溧水县","postcode":"211200"},{"name":"高淳县","postcode":"211300"}]},{"name":"无锡市","district":[{"name":"崇安区","postcode":"214000"},{"name":"南长区","postcode":"214000"},{"name":"北塘区","postcode":"214000"},{"name":"惠山区","postcode":"214000"},{"name":"无锡新区","postcode":"214028"},{"name":"江阴市","postcode":"214400"},{"name":"宜兴市","postcode":"214200"},{"name":"锡山区","postcode":"214000"},{"name":"滨湖区","postcode":"214062"}]},{"name":"徐州市","district":[{"name":"鼓楼区","postcode":"221000"},{"name":"云龙区","postcode":"221000"},{"name":"九里区","postcode":"221000"},{"name":"贾汪区","postcode":"221000"},{"name":"泉山区","postcode":"221000"},{"name":"丰县","postcode":"221700"},{"name":"沛县","postcode":"221600"},{"name":"铜山县","postcode":"221100"},{"name":"睢宁县","postcode":"221200"},{"name":"新沂市","postcode":"221400"},{"name":"邳州市","postcode":"221300"}]},{"name":"常州市","district":[{"name":"天宁区","postcode":"213000"},{"name":"钟楼区","postcode":"213000"},{"name":"戚墅堰区","postcode":"213000"},{"name":"溧阳市","postcode":"213300"},{"name":"金坛市","postcode":"213200"},{"name":"武进区","postcode":"213100"}]},{"name":"苏州市","district":[{"name":"苏州工业园区","postcode":"215021"},{"name":"吴中区","postcode":"215128"},{"name":"常熟市","postcode":"215500"},{"name":"昆山市","postcode":"215300"},{"name":"太仓市","postcode":"215400"},{"name":"姑苏区","postcode":"215000"},{"name":"虎丘区","postcode":"215011"},{"name":"相城区","postcode":"215100"},{"name":"张家港市","postcode":"215600"},{"name":"吴江区","postcode":"215200"}]},{"name":"南通市","district":[{"name":"崇川区","postcode":"226000"},{"name":"港闸区","postcode":"226000"},{"name":"海安县","postcode":"226600"},{"name":"如东县","postcode":"226400"},{"name":"启东市","postcode":"226200"},{"name":"如皋市","postcode":"226500"},{"name":"通州市","postcode":"226300"},{"name":"海门市","postcode":"226100"}]},{"name":"连云港市","district":[{"name":"连云区","postcode":"222042"},{"name":"新浦区","postcode":"222003"},{"name":"海州区","postcode":"222000"},{"name":"赣榆县","postcode":"222100"},{"name":"东海县","postcode":"222300"},{"name":"灌云县","postcode":"222200"},{"name":"灌南县","postcode":"223500"}]},{"name":"淮安市","district":[{"name":"清河区","postcode":"223001"},{"name":"清浦区","postcode":"223002"},{"name":"淮阴区","postcode":"223300"},{"name":"涟水县","postcode":"223400"},{"name":"洪泽县","postcode":"223100"},{"name":"盱眙县","postcode":"211700"},{"name":"金湖县","postcode":"211600"},{"name":"淮安区","postcode":"223200"}]},{"name":"盐城市","district":[{"name":"亭湖区","postcode":"224001"},{"name":"响水县","postcode":"224600"},{"name":"滨海县","postcode":"224500"},{"name":"阜宁县","postcode":"224400"},{"name":"射阳县","postcode":"224300"},{"name":"建湖县","postcode":"224700"},{"name":"盐都区","postcode":"224006"},{"name":"东台市","postcode":"224200"},{"name":"大丰市","postcode":"224100"}]},{"name":"扬州市","district":[{"name":"广陵区","postcode":"225000"},{"name":"宝应县","postcode":"225800"},{"name":"邗江区","postcode":"225100"},{"name":"仪征市","postcode":"211400"},{"name":"高邮市","postcode":"225600"},{"name":"江都区","postcode":"225200"}]},{"name":"镇江市","district":[{"name":"京口区","postcode":"212001"},{"name":"润州区","postcode":"212004"},{"name":"镇江新区","postcode":"212132"},{"name":"丹徒区","postcode":"212101"},{"name":"丹阳市","postcode":"212300"},{"name":"扬中市","postcode":"212200"},{"name":"句容市","postcode":"212400"}]},{"name":"泰州市","district":[{"name":"海陵区","postcode":"225300"},{"name":"高港区","postcode":"225300"},{"name":"兴化市","postcode":"225700"},{"name":"靖江市","postcode":"214500"},{"name":"泰兴市","postcode":"225400"},{"name":"姜堰市","postcode":"225500"}]},{"name":"宿迁市","district":[{"name":"宿城区","postcode":"223800"},{"name":"宿豫区","postcode":"223800"},{"name":"沭阳县","postcode":"223600"},{"name":"泗阳县","postcode":"223700"},{"name":"泗洪县","postcode":"223900"}]}]},{"name":"浙江省","citys":[{"name":"杭州市","district":[{"name":"上城区","postcode":"310000"},{"name":"下城区","postcode":"310000"},{"name":"江干区","postcode":"310000"},{"name":"拱墅区","postcode":"310000"},{"name":"西湖区","postcode":"310000"},{"name":"滨江区","postcode":"310000"},{"name":"桐庐县","postcode":"311500"},{"name":"淳安县","postcode":"311700"},{"name":"萧山区","postcode":"311200"},{"name":"建德市","postcode":"311600"},{"name":"富阳市","postcode":"311400"},{"name":"余杭区","postcode":"311100"},{"name":"临安市","postcode":"311300"}]},{"name":"宁波市","district":[{"name":"海曙区","postcode":"315000"},{"name":"江东区","postcode":"315000"},{"name":"江北区","postcode":"315000"},{"name":"北仑区","postcode":"315800"},{"name":"镇海区","postcode":"315200"},{"name":"象山县","postcode":"315700"},{"name":"宁海县","postcode":"315600"},{"name":"鄞州区","postcode":"315100"},{"name":"余姚市","postcode":"315400"},{"name":"慈溪市","postcode":"315300"},{"name":"奉化市","postcode":"315500"}]},{"name":"温州市","district":[{"name":"鹿城区","postcode":"325000"},{"name":"龙湾区","postcode":"325000"},{"name":"瓯海区","postcode":"325000"},{"name":"洞头县","postcode":"325700"},{"name":"永嘉县","postcode":"325100"},{"name":"平阳县","postcode":"325400"},{"name":"苍南县","postcode":"325800"},{"name":"文成县","postcode":"325300"},{"name":"泰顺县","postcode":"325500"},{"name":"瑞安市","postcode":"325200"},{"name":"乐清市","postcode":"325600"}]},{"name":"嘉兴市","district":[{"name":"秀洲区","postcode":"314000"},{"name":"南湖区","postcode":"314001"},{"name":"嘉善县","postcode":"314100"},{"name":"海盐县","postcode":"314300"},{"name":"海宁市","postcode":"314400"},{"name":"平湖市","postcode":"314200"},{"name":"桐乡市","postcode":"314500"}]},{"name":"湖州市","district":[{"name":"吴兴区","postcode":"313000"},{"name":"南浔区","postcode":"313000"},{"name":"德清县","postcode":"313200"},{"name":"长兴县","postcode":"313100"},{"name":"安吉县","postcode":"313300"}]},{"name":"绍兴市","district":[{"name":"越城区","postcode":"312000"},{"name":"绍兴县","postcode":"312000"},{"name":"新昌县","postcode":"312500"},{"name":"诸暨市","postcode":"311800"},{"name":"上虞市","postcode":"312300"},{"name":"嵊州市","postcode":"312400"}]},{"name":"金华市","district":[{"name":"婺城区","postcode":"321000"},{"name":"金东区","postcode":"321015"},{"name":"武义县","postcode":"321200"},{"name":"浦江县","postcode":"322200"},{"name":"磐安县","postcode":"322300"},{"name":"兰溪市","postcode":"321100"},{"name":"义乌市","postcode":"322000"},{"name":"东阳市","postcode":"322100"},{"name":"永康市","postcode":"321300"}]},{"name":"衢州市","district":[{"name":"柯城区","postcode":"324000"},{"name":"衢江区","postcode":"324022"},{"name":"常山县","postcode":"324200"},{"name":"开化县","postcode":"324300"},{"name":"龙游县","postcode":"324400"},{"name":"江山市","postcode":"324100"}]},{"name":"舟山市","district":[{"name":"定海区","postcode":"316000"},{"name":"普陀区","postcode":"316000"},{"name":"岱山县","postcode":"316200"},{"name":"嵊泗县","postcode":"202450"}]},{"name":"台州市","district":[{"name":"椒江区","postcode":"317700"},{"name":"黄岩区","postcode":"318020"},{"name":"路桥区","postcode":"318000"},{"name":"玉环县","postcode":"317600"},{"name":"三门县","postcode":"317100"},{"name":"天台县","postcode":"317200"},{"name":"仙居县","postcode":"317300"},{"name":"温岭市","postcode":"317500"},{"name":"临海市","postcode":"317000"}]},{"name":"丽水市","district":[{"name":"丽水市","postcode":"323000"},{"name":"龙泉市","postcode":"323700"},{"name":"青田县","postcode":"323900"},{"name":"云和县","postcode":"323600"},{"name":"庆元县","postcode":"323800"},{"name":"缙云县","postcode":"321400"},{"name":"遂昌县","postcode":"323300"},{"name":"松阳县","postcode":"323400"},{"name":"景宁畲族自治县","postcode":"323500"}]}]},{"name":"安徽省","citys":[{"name":"合肥市","district":[{"name":"瑶海区","postcode":"230011"},{"name":"庐阳区","postcode":"230001"},{"name":"蜀山区","postcode":"230061"},{"name":"包河区","postcode":"230041"},{"name":"巢湖市","postcode":"238000"},{"name":"长丰县","postcode":"231100"},{"name":"肥东县","postcode":"231600"},{"name":"肥西县","postcode":"231200"},{"name":"庐江县","postcode":"231500"}]},{"name":"芜湖市","district":[{"name":"镜湖区","postcode":"241000"},{"name":"三山区","postcode":"241080"},{"name":"弋江区","postcode":"241002"},{"name":"鸠江区","postcode":"241000"},{"name":"芜湖县","postcode":"241100"},{"name":"繁昌县","postcode":"241200"},{"name":"南陵县","postcode":"242400"},{"name":"无为县","postcode":"238300"}]},{"name":"蚌埠市","district":[{"name":"龙子湖区","postcode":"233030"},{"name":"禹会区","postcode":"233010"},{"name":"蚌山区","postcode":"233000"},{"name":"淮上区","postcode":"233002"},{"name":"怀远县","postcode":"233400"},{"name":"五河县","postcode":"233300"},{"name":"固镇县","postcode":"233700"}]},{"name":"淮南市","district":[{"name":"大通区","postcode":"232000"},{"name":"田家庵区","postcode":"232000"},{"name":"谢家集区","postcode":"232000"},{"name":"八公山区","postcode":"232000"},{"name":"潘集区","postcode":"232000"},{"name":"凤台县","postcode":"232100"}]},{"name":"马鞍山市","district":[{"name":"博望区","postcode":"243000"},{"name":"花山区","postcode":"243003"},{"name":"雨山区","postcode":"243004"},{"name":"当涂县","postcode":"243100"},{"name":"含山县","postcode":"238100"},{"name":"和县","postcode":"238200"}]},{"name":"淮北市","district":[{"name":"杜集区","postcode":"235000"},{"name":"相山区","postcode":"235000"},{"name":"烈山区","postcode":"235000"},{"name":"濉溪县","postcode":"235100"}]},{"name":"铜陵市","district":[{"name":"铜官山区","postcode":"244000"},{"name":"狮子山区","postcode":"244000"},{"name":"铜陵郊区","postcode":"244000"},{"name":"铜陵县","postcode":"244100"}]},{"name":"安庆市","district":[{"name":"迎江区","postcode":"246000"},{"name":"大观区","postcode":"246000"},{"name":"宜秀区","postcode":"246003"},{"name":"怀宁县","postcode":"246100"},{"name":"枞阳县","postcode":"246700"},{"name":"潜山县","postcode":"246300"},{"name":"太湖县","postcode":"246400"},{"name":"宿松县","postcode":"246500"},{"name":"望江县","postcode":"246200"},{"name":"岳西县","postcode":"246600"},{"name":"桐城市","postcode":"231400"}]},{"name":"黄山市","district":[{"name":"屯溪区","postcode":"245000"},{"name":"黄山区","postcode":"245000"},{"name":"徽州区","postcode":"245000"},{"name":"歙县","postcode":"245200"},{"name":"休宁县","postcode":"245400"},{"name":"黟县","postcode":"245500"},{"name":"祁门县","postcode":"245600"}]},{"name":"滁州市","district":[{"name":"琅琊区","postcode":"239000"},{"name":"南谯区","postcode":"239000"},{"name":"来安县","postcode":"239200"},{"name":"全椒县","postcode":"239500"},{"name":"定远县","postcode":"233200"},{"name":"凤阳县","postcode":"233100"},{"name":"天长市","postcode":"239300"},{"name":"明光市","postcode":"239400"}]},{"name":"阜阳市","district":[{"name":"颍州区","postcode":"236000"},{"name":"颍东区","postcode":"236000"},{"name":"颍泉区","postcode":"236000"},{"name":"临泉县","postcode":"236400"},{"name":"太和县","postcode":"236600"},{"name":"阜南县","postcode":"236300"},{"name":"颍上县","postcode":"236200"},{"name":"界首市","postcode":"236500"}]},{"name":"宿州市","district":[{"name":"墉桥区","postcode":"234000"},{"name":"砀山县","postcode":"235300"},{"name":"萧县","postcode":"235200"},{"name":"灵璧县","postcode":"234200"},{"name":"泗县","postcode":"234300"}]},{"name":"六安市","district":[{"name":"金安区","postcode":"237005"},{"name":"裕安区","postcode":"237010"},{"name":"寿县","postcode":"232200"},{"name":"霍邱县","postcode":"237400"},{"name":"舒城县","postcode":"231300"},{"name":"金寨县","postcode":"237300"},{"name":"霍山县","postcode":"237200"}]},{"name":"宣城市","district":[{"name":"宣州区","postcode":"242000"},{"name":"宁国市","postcode":"242300"},{"name":"郎溪县","postcode":"242100"},{"name":"广德县","postcode":"242200"},{"name":"泾县","postcode":"242500"},{"name":"旌德县","postcode":"242600"},{"name":"绩溪县","postcode":"245300"}]},{"name":"池州市","district":[{"name":"贵池区","postcode":"247100"},{"name":"东至县","postcode":"247200"},{"name":"石台县","postcode":"245100"},{"name":"青阳县","postcode":"242800"}]}]},{"name":"福建省","citys":[{"name":"福州市","district":[{"name":"鼓楼区","postcode":"350000"},{"name":"台江区","postcode":"350000"},{"name":"仓山区","postcode":"350000"},{"name":"马尾区","postcode":"350000"},{"name":"晋安区","postcode":"350000"},{"name":"闽侯县","postcode":"350100"},{"name":"连江县","postcode":"350500"},{"name":"罗源县","postcode":"350600"},{"name":"闽清县","postcode":"350800"},{"name":"永泰县","postcode":"350700"},{"name":"平潭县","postcode":"350400"},{"name":"福清市","postcode":"350300"},{"name":"长乐市","postcode":"350200"}]},{"name":"厦门市","district":[{"name":"思明区","postcode":"361000"},{"name":"海沧区","postcode":"361000"},{"name":"湖里区","postcode":"361000"},{"name":"集美区","postcode":"361000"},{"name":"同安区","postcode":"361100"},{"name":"翔安区","postcode":"361100"}]},{"name":"宁德市","district":[{"name":"蕉城区","postcode":"352000"},{"name":"霞浦县","postcode":"355100"},{"name":"古田县","postcode":"352200"},{"name":"屏南县","postcode":"352300"},{"name":"寿宁县","postcode":"355500"},{"name":"周宁县","postcode":"355400"},{"name":"柘荣县","postcode":"355300"},{"name":"福安市","postcode":"355000"},{"name":"福鼎市","postcode":"355200"}]},{"name":"莆田市","district":[{"name":"城厢区","postcode":"351100"},{"name":"涵江区","postcode":"351100"},{"name":"荔城区","postcode":"351100"},{"name":"秀屿区","postcode":"351100"},{"name":"仙游县","postcode":"351200"}]},{"name":"泉州市","district":[{"name":"鲤城区","postcode":"362000"},{"name":"丰泽区","postcode":"362000"},{"name":"洛江区","postcode":"362000"},{"name":"泉港区","postcode":"362100"},{"name":"惠安县","postcode":"362100"},{"name":"安溪县","postcode":"362400"},{"name":"永春县","postcode":"362600"},{"name":"德化县","postcode":"362500"},{"name":"石狮市","postcode":"362700"},{"name":"晋江市","postcode":"362200"},{"name":"南安市","postcode":"362300"}]},{"name":"漳州市","district":[{"name":"芗城区","postcode":"363000"},{"name":"龙文区","postcode":"363000"},{"name":"云霄县","postcode":"363300"},{"name":"漳浦县","postcode":"363200"},{"name":"诏安县","postcode":"363500"},{"name":"长泰县","postcode":"363900"},{"name":"东山县","postcode":"363400"},{"name":"南靖县","postcode":"363600"},{"name":"平和县","postcode":"363700"},{"name":"华安县","postcode":"363800"},{"name":"龙海市","postcode":"363100"}]},{"name":"龙岩市","district":[{"name":"新罗区","postcode":"364000"},{"name":"长汀县","postcode":"366300"},{"name":"永定县","postcode":"364100"},{"name":"上杭县","postcode":"364200"},{"name":"武平县","postcode":"364300"},{"name":"连城县","postcode":"366200"},{"name":"漳平市","postcode":"364400"}]},{"name":"三明市","district":[{"name":"梅列区","postcode":"365000"},{"name":"三元区","postcode":"365000"},{"name":"明溪县","postcode":"365300"},{"name":"清流县","postcode":"365300"},{"name":"宁化县","postcode":"365400"},{"name":"大田县","postcode":"366100"},{"name":"尤溪县","postcode":"365100"},{"name":"沙县","postcode":"365500"},{"name":"将乐县","postcode":"353300"},{"name":"泰宁县","postcode":"354400"},{"name":"建宁县","postcode":"354500"},{"name":"永安市","postcode":"366000"}]},{"name":"南平市","district":[{"name":"延平区","postcode":"353000"},{"name":"顺昌县","postcode":"353200"},{"name":"浦城县","postcode":"353400"},{"name":"光泽县","postcode":"354100"},{"name":"松溪县","postcode":"353500"},{"name":"政和县","postcode":"353600"},{"name":"邵武市","postcode":"354000"},{"name":"武夷山市","postcode":"354300"},{"name":"建瓯市","postcode":"353100"},{"name":"建阳市","postcode":"354200"}]}]},{"name":"江西省","citys":[{"name":"南昌市","district":[{"name":"东湖区","postcode":"330000"},{"name":"西湖区","postcode":"330000"},{"name":"青云谱区","postcode":"330000"},{"name":"湾里区","postcode":"330000"},{"name":"南昌县","postcode":"330200"},{"name":"新建县","postcode":"330100"},{"name":"安义县","postcode":"330500"},{"name":"进贤县","postcode":"331700"}]},{"name":"景德镇市","district":[{"name":"昌江区","postcode":"333000"},{"name":"珠山区","postcode":"333000"},{"name":"浮梁县","postcode":"333400"},{"name":"乐平市","postcode":"333300"}]},{"name":"萍乡市","district":[{"name":"安源区","postcode":"337000"},{"name":"湘东区","postcode":"337000"},{"name":"莲花县","postcode":"337100"},{"name":"上栗县","postcode":"337000"},{"name":"芦溪县","postcode":"337000"}]},{"name":"九江市","district":[{"name":"庐山区","postcode":"332900"},{"name":"浔阳区","postcode":"332000"},{"name":"九江县","postcode":"332100"},{"name":"武宁县","postcode":"332300"},{"name":"修水县","postcode":"332400"},{"name":"永修县","postcode":"330300"},{"name":"德安县","postcode":"330400"},{"name":"星子县","postcode":"332800"},{"name":"都昌县","postcode":"332600"},{"name":"湖口县","postcode":"332500"},{"name":"彭泽县","postcode":"332700"},{"name":"瑞昌市","postcode":"332200"}]},{"name":"新余市","district":[{"name":"渝水区","postcode":"336500"},{"name":"分宜县","postcode":"336600"}]},{"name":"鹰潭市","district":[{"name":"月湖区","postcode":"335000"},{"name":"余江县","postcode":"335200"},{"name":"贵溪市","postcode":"335400"}]},{"name":"赣州市","district":[{"name":"章贡区","postcode":"341000"},{"name":"赣县","postcode":"341100"},{"name":"信丰县","postcode":"341600"},{"name":"大余县","postcode":"341500"},{"name":"上犹县","postcode":"341200"},{"name":"崇义县","postcode":"341300"},{"name":"安远县","postcode":"342100"},{"name":"龙南县","postcode":"341700"},{"name":"定南县","postcode":"341900"},{"name":"全南县","postcode":"341800"},{"name":"宁都县","postcode":"342800"},{"name":"于都县","postcode":"342300"},{"name":"兴国县","postcode":"342400"},{"name":"会昌县","postcode":"342600"},{"name":"寻乌县","postcode":"342200"},{"name":"石城县","postcode":"342700"},{"name":"瑞金市","postcode":"342500"},{"name":"南康市","postcode":"341400"}]},{"name":"宜春市","district":[{"name":"宜春市","postcode":"336000"},{"name":"丰城市","postcode":"331100"},{"name":"樟树市","postcode":"331200"},{"name":"高安市","postcode":"330800"},{"name":"奉新县","postcode":"330700"},{"name":"万载县","postcode":"336100"},{"name":"上高县","postcode":"336400"},{"name":"宜丰县","postcode":"336300"},{"name":"靖安县","postcode":"330600"},{"name":"铜鼓县","postcode":"336200"}]},{"name":"上饶市","district":[{"name":"上饶市","postcode":"334000"},{"name":"德兴市","postcode":"334200"},{"name":"上饶县","postcode":"334100"},{"name":"广丰县","postcode":"334600"},{"name":"玉山县","postcode":"334700"},{"name":"铅山县","postcode":"334500"},{"name":"横峰县","postcode":"334300"},{"name":"弋阳县","postcode":"334400"},{"name":"余干县","postcode":"335100"},{"name":"鄱阳县","postcode":"333100"},{"name":"万年县","postcode":"335500"},{"name":"婺源县","postcode":"333200"}]},{"name":"吉安市","district":[{"name":"吉州区","postcode":"343000"},{"name":"井冈山市","postcode":"343600"},{"name":"吉安县","postcode":"343100"},{"name":"吉水县","postcode":"331600"},{"name":"峡江县","postcode":"331400"},{"name":"新干县","postcode":"331300"},{"name":"永丰县","postcode":"331500"},{"name":"泰和县","postcode":"343700"},{"name":"遂川县","postcode":"343900"},{"name":"万安县","postcode":"343800"},{"name":"安福县","postcode":"343200"},{"name":"永新县","postcode":"343400"},{"name":"青原区","postcode":"343000"}]},{"name":"抚州市","district":[{"name":"临川区","postcode":"344100"},{"name":"南城县","postcode":"344700"},{"name":"黎川县","postcode":"344600"},{"name":"南丰县","postcode":"344500"},{"name":"崇仁县","postcode":"344200"},{"name":"乐安县","postcode":"344300"},{"name":"宜黄县","postcode":"344400"},{"name":"金溪县","postcode":"344800"},{"name":"资溪县","postcode":"335300"},{"name":"东乡县","postcode":"331800"},{"name":"广昌县","postcode":"344900"}]}]},{"name":"山东省","citys":[{"name":"济南市","district":[{"name":"历下区","postcode":"250000"},{"name":"市中区","postcode":"250000"},{"name":"槐荫区","postcode":"250000"},{"name":"天桥区","postcode":"250000"},{"name":"历城区","postcode":"250100"},{"name":"长清区","postcode":"250300"},{"name":"平阴县","postcode":"250400"},{"name":"济阳县","postcode":"251400"},{"name":"商河县","postcode":"251600"},{"name":"章丘市","postcode":"250200"}]},{"name":"青岛市","district":[{"name":"市南区","postcode":"266000"},{"name":"市北区","postcode":"266000"},{"name":"四方区","postcode":"266000"},{"name":"黄岛区","postcode":"266000"},{"name":"崂山区","postcode":"266100"},{"name":"李沧区","postcode":"266000"},{"name":"城阳区","postcode":"266000"},{"name":"胶州市","postcode":"266300"},{"name":"即墨市","postcode":"266200"},{"name":"平度市","postcode":"266700"},{"name":"胶南市","postcode":"266400"},{"name":"莱西市","postcode":"266600"}]},{"name":"淄博市","district":[{"name":"淄川区","postcode":"255100"},{"name":"张店区","postcode":"255000"},{"name":"博山区","postcode":"255200"},{"name":"临淄区","postcode":"255400"},{"name":"周村区","postcode":"255300"},{"name":"桓台县","postcode":"256400"},{"name":"高青县","postcode":"256300"},{"name":"沂源县","postcode":"256100"}]},{"name":"枣庄市","district":[{"name":"市中区","postcode":"277000"},{"name":"薛城区","postcode":"277000"},{"name":"峄城区","postcode":"277300"},{"name":"台儿庄区","postcode":"277400"},{"name":"山亭区","postcode":"277200"},{"name":"滕州市","postcode":"277500"}]},{"name":"东营市","district":[{"name":"东营区","postcode":"257100"},{"name":"河口区","postcode":"257200"},{"name":"垦利县","postcode":"257500"},{"name":"利津县","postcode":"257400"},{"name":"广饶县","postcode":"257300"}]},{"name":"烟台市","district":[{"name":"芝罘区","postcode":"264000"},{"name":"福山区","postcode":"265500"},{"name":"牟平区","postcode":"264100"},{"name":"莱山区","postcode":"264000"},{"name":"长岛县","postcode":"265800"},{"name":"龙口市","postcode":"265700"},{"name":"莱阳市","postcode":"265200"},{"name":"莱州市","postcode":"261400"},{"name":"蓬莱市","postcode":"265600"},{"name":"招远市","postcode":"265400"},{"name":"栖霞市","postcode":"265300"},{"name":"海阳市","postcode":"265100"}]},{"name":"潍坊市","district":[{"name":"潍城区","postcode":"261000"},{"name":"寒亭区","postcode":"261100"},{"name":"坊子区","postcode":"261200"},{"name":"奎文区","postcode":"261000"},{"name":"临朐县","postcode":"262600"},{"name":"昌乐县","postcode":"262400"},{"name":"青州市","postcode":"262500"},{"name":"诸城市","postcode":"262200"},{"name":"寿光市","postcode":"262700"},{"name":"安丘市","postcode":"262100"},{"name":"高密市","postcode":"261500"},{"name":"昌邑市","postcode":"261300"}]},{"name":"济宁市","district":[{"name":"市中区","postcode":"272000"},{"name":"任城区","postcode":"272000"},{"name":"微山县","postcode":"277600"},{"name":"鱼台县","postcode":"272300"},{"name":"金乡县","postcode":"272200"},{"name":"嘉祥县","postcode":"272400"},{"name":"汶上县","postcode":"272500"},{"name":"泗水县","postcode":"273200"},{"name":"梁山县","postcode":"272600"},{"name":"曲阜市","postcode":"273100"},{"name":"兖州市","postcode":"272000"},{"name":"邹城市","postcode":"273500"}]},{"name":"泰安市","district":[{"name":"泰山区","postcode":"271000"},{"name":"岱岳区","postcode":"271000"},{"name":"宁阳县","postcode":"271400"},{"name":"东平县","postcode":"271500"},{"name":"新泰市","postcode":"271200"},{"name":"肥城市","postcode":"271600"}]},{"name":"威海市","district":[{"name":"环翠区","postcode":"264200"},{"name":"文登市","postcode":"264400"},{"name":"荣成市","postcode":"264300"},{"name":"乳山市","postcode":"264500"}]},{"name":"日照市","district":[{"name":"东港区","postcode":"276800"},{"name":"岚山区","postcode":"276800"},{"name":"五莲县","postcode":"262300"},{"name":"莒县","postcode":"276500"}]},{"name":"莱芜市","district":[{"name":"莱城区","postcode":"271100"},{"name":"钢城区","postcode":"271100"}]},{"name":"临沂市","district":[{"name":"兰山区","postcode":"276000"},{"name":"罗庄区","postcode":"276000"},{"name":"河东区","postcode":"276000"},{"name":"沂南县","postcode":"276300"},{"name":"郯城县","postcode":"276100"},{"name":"沂水县","postcode":"276400"},{"name":"苍山县","postcode":"277700"},{"name":"费县","postcode":"273400"},{"name":"平邑县","postcode":"273300"},{"name":"莒南县","postcode":"276600"},{"name":"蒙阴县","postcode":"276200"},{"name":"临沭县","postcode":"276700"}]},{"name":"德州市","district":[{"name":"德城区","postcode":"253000"},{"name":"陵县","postcode":"253500"},{"name":"宁津县","postcode":"253400"},{"name":"庆云县","postcode":"253700"},{"name":"临邑县","postcode":"251500"},{"name":"齐河县","postcode":"251100"},{"name":"平原县","postcode":"253100"},{"name":"夏津县","postcode":"253200"},{"name":"武城县","postcode":"253300"},{"name":"乐陵市","postcode":"253600"},{"name":"禹城市","postcode":"251200"}]},{"name":"聊城市","district":[{"name":"东昌府区","postcode":"252000"},{"name":"阳谷县","postcode":"252300"},{"name":"莘县","postcode":"252400"},{"name":"茌平县","postcode":"252100"},{"name":"东阿县","postcode":"252200"},{"name":"冠县","postcode":"252500"},{"name":"高唐县","postcode":"252800"},{"name":"临清市","postcode":"252600"}]},{"name":"滨州市","district":[{"name":"滨州市","postcode":"256600"},{"name":"惠民县","postcode":"251700"},{"name":"阳信县","postcode":"251800"},{"name":"无棣县","postcode":"251900"},{"name":"沾化县","postcode":"256800"},{"name":"博兴县","postcode":"256500"},{"name":"邹平县","postcode":"256200"}]},{"name":"菏泽市","district":[{"name":"牡丹区","postcode":"274000"},{"name":"曹县","postcode":"274400"},{"name":"定陶县","postcode":"274100"},{"name":"成武县","postcode":"274200"},{"name":"单县","postcode":"274300"},{"name":"巨野县","postcode":"274900"},{"name":"郓城县","postcode":"274700"},{"name":"鄄城县","postcode":"274600"},{"name":"东明县","postcode":"274500"}]}]},{"name":"河南省","citys":[{"name":"郑州市","district":[{"name":"中原区","postcode":"450000"},{"name":"二七区","postcode":"450000"},{"name":"管城回族区","postcode":"450000"},{"name":"金水区","postcode":"450000"},{"name":"上街区","postcode":"450041"},{"name":"邙山区","postcode":"450000"},{"name":"中牟县","postcode":"451450"},{"name":"巩义市","postcode":"452100"},{"name":"荥阳市","postcode":"450100"},{"name":"新密市","postcode":"452370"},{"name":"新郑市","postcode":"451100"},{"name":"登封市","postcode":"452470"}]},{"name":"开封市","district":[{"name":"龙亭区","postcode":"475000"},{"name":"顺河回族区","postcode":"475000"},{"name":"鼓楼区","postcode":"475000"},{"name":"禹王台区 ","postcode":"475000"},{"name":"金明区","postcode":"475002"},{"name":"杞县","postcode":"475200"},{"name":"通许县","postcode":"452200"},{"name":"尉氏县","postcode":"452100"},{"name":"开封县","postcode":"475100"},{"name":"兰考县","postcode":"475300"}]},{"name":"洛阳市","district":[{"name":"老城区","postcode":"471000"},{"name":"西工区","postcode":"471000"},{"name":"廛河回族区","postcode":"471000"},{"name":"涧西区","postcode":"471000"},{"name":"吉利区","postcode":"471000"},{"name":"孟津县","postcode":"471100"},{"name":"新安县","postcode":"471800"},{"name":"栾川县","postcode":"471500"},{"name":"嵩县","postcode":"471400"},{"name":"汝阳县","postcode":"471200"},{"name":"宜阳县","postcode":"471600"},{"name":"洛宁县","postcode":"471700"},{"name":"伊川县","postcode":"471300"},{"name":"偃师市","postcode":"471900"}]},{"name":"平顶山市","district":[{"name":"新华区","postcode":"467000"},{"name":"卫东区","postcode":"467000"},{"name":"石龙区","postcode":"467000"},{"name":"湛河区","postcode":"467000"},{"name":"宝丰县","postcode":"467400"},{"name":"叶县","postcode":"467200"},{"name":"鲁山县","postcode":"467300"},{"name":"郏县","postcode":"467100"},{"name":"舞钢市","postcode":"462500"},{"name":"汝州市","postcode":"467500"}]},{"name":"安阳市","district":[{"name":"文峰区","postcode":"455000"},{"name":"北关区","postcode":"455000"},{"name":"殷都区","postcode":"455000"},{"name":"龙安区","postcode":"455000"},{"name":"安阳县","postcode":"455100"},{"name":"汤阴县","postcode":"456150"},{"name":"滑县","postcode":"456400"},{"name":"内黄县","postcode":"456300"},{"name":"林州市","postcode":"456500"}]},{"name":"鹤壁市","district":[{"name":"鹤山区","postcode":"458000"},{"name":"山城区","postcode":"458000"},{"name":"郊区","postcode":"#N/A"},{"name":"浚县","postcode":"456250"},{"name":"淇县","postcode":"456750"}]},{"name":"新乡市","district":[{"name":"红旗区","postcode":"453000"},{"name":"卫滨区","postcode":"453000"},{"name":"牧野区","postcode":"453002"},{"name":"凤泉区","postcode":"453000"},{"name":"新乡县","postcode":"453700"},{"name":"获嘉县","postcode":"453800"},{"name":"原阳县","postcode":"453500"},{"name":"延津县","postcode":"453200"},{"name":"封丘县","postcode":"453300"},{"name":"长垣县","postcode":"453400"},{"name":"卫辉市","postcode":"453100"},{"name":"辉县市","postcode":"453600"}]},{"name":"焦作市","district":[{"name":"解放区","postcode":"454150"},{"name":"中站区","postcode":"454150"},{"name":"马村区","postcode":"454150"},{"name":"山阳区","postcode":"454150"},{"name":"修武县","postcode":"454350"},{"name":"博爱县","postcode":"454450"},{"name":"武陟县","postcode":"454950"},{"name":"温县","postcode":"454850"},{"name":"沁阳市","postcode":"454550"},{"name":"孟州市","postcode":"454750"}]},{"name":"濮阳市","district":[{"name":"华龙区","postcode":"457000"},{"name":"清丰县","postcode":"457300"},{"name":"南乐县","postcode":"457400"},{"name":"范县","postcode":"457500"},{"name":"台前县","postcode":"457600"},{"name":"濮阳县","postcode":"457100"}]},{"name":"许昌市","district":[{"name":"魏都区","postcode":"461000"},{"name":"许昌县","postcode":"461100"},{"name":"鄢陵县","postcode":"461200"},{"name":"襄城县","postcode":"452670"},{"name":"禹州市","postcode":"452570"},{"name":"长葛市","postcode":"461500"}]},{"name":"漯河市","district":[{"name":"源汇区","postcode":"462000"},{"name":"郾城区","postcode":"462300"},{"name":"召陵区","postcode":"462300"},{"name":"舞阳县","postcode":"462400"},{"name":"临颍县","postcode":"462600"}]},{"name":"三门峡市","district":[{"name":"湖滨区","postcode":"472000"},{"name":"渑池县","postcode":"472400"},{"name":"陕县","postcode":"472100"},{"name":"卢氏县","postcode":"472200"},{"name":"义马市","postcode":"472300"},{"name":"灵宝市","postcode":"472500"}]},{"name":"南阳市","district":[{"name":"宛城区","postcode":"473000"},{"name":"卧龙区","postcode":"473000"},{"name":"南召县","postcode":"474650"},{"name":"方城县","postcode":"473200"},{"name":"西峡县","postcode":"474550"},{"name":"镇平县","postcode":"474250"},{"name":"内乡县","postcode":"474350"},{"name":"淅川县","postcode":"474450"},{"name":"社旗县","postcode":"473300"},{"name":"唐河县","postcode":"473400"},{"name":"新野县","postcode":"473500"},{"name":"桐柏县","postcode":"474750"},{"name":"邓州市","postcode":"474150"}]},{"name":"商丘市","district":[{"name":"梁园区","postcode":"476000"},{"name":"睢阳区","postcode":"476000"},{"name":"民权县","postcode":"476800"},{"name":"睢县","postcode":"476900"},{"name":"宁陵县","postcode":"476700"},{"name":"柘城县","postcode":"476200"},{"name":"虞城县","postcode":"476300"},{"name":"夏邑县","postcode":"476400"},{"name":"永城市","postcode":"476600"}]},{"name":"信阳市","district":[{"name":"浉河区","postcode":"464000"},{"name":"平桥区","postcode":"464000"},{"name":"罗山县","postcode":"464200"},{"name":"光山县","postcode":"465450"},{"name":"新县","postcode":"465500"},{"name":"商城县","postcode":"465350"},{"name":"固始县","postcode":"465200"},{"name":"潢川县","postcode":"465150"},{"name":"淮滨县","postcode":"464400"},{"name":"息县","postcode":"464300"}]},{"name":"周口市","district":[{"name":"周口市","postcode":"466000"},{"name":"项城市","postcode":"466200"},{"name":"扶沟县","postcode":"461300"},{"name":"西华县","postcode":"466600"},{"name":"商水县","postcode":"466100"},{"name":"太康县","postcode":"475400"},{"name":"鹿邑县","postcode":"477200"},{"name":"郸城县","postcode":"477150"},{"name":"淮阳县","postcode":"466700"},{"name":"沈丘县","postcode":"466300"}]},{"name":"驻马店市","district":[{"name":"驻马店市","postcode":"463000"},{"name":"确山县","postcode":"463200"},{"name":"泌阳县","postcode":"463700"},{"name":"遂平县","postcode":"463100"},{"name":"西平县","postcode":"463900"},{"name":"上蔡县","postcode":"463800"},{"name":"汝南县","postcode":"463300"},{"name":"平舆县","postcode":"463400"},{"name":"新蔡县","postcode":"463500"},{"name":"正阳县","postcode":"463600"}]},{"name":"济源市","district":[{"name":"济源市","postcode":"454650"}]}]},{"name":"湖北省","citys":[{"name":"武汉市","district":[{"name":"江岸区","postcode":"430014"},{"name":"江汉区","postcode":"430000"},{"name":"乔口区","postcode":"430000"},{"name":"汉阳区","postcode":"430050"},{"name":"武昌区","postcode":"430000"},{"name":"青山区","postcode":"430000"},{"name":"洪山区","postcode":"430070"},{"name":"东西湖区","postcode":"430040"},{"name":"汉南区","postcode":"430090"},{"name":"蔡甸区","postcode":"430100"},{"name":"江夏区","postcode":"430200"},{"name":"黄陂区","postcode":"432200"},{"name":"新洲区","postcode":"431400"}]},{"name":"黄石市","district":[{"name":"黄石港区","postcode":"435000"},{"name":"西塞山区","postcode":"435000"},{"name":"下陆区","postcode":"435000"},{"name":"铁山区","postcode":"435000"},{"name":"阳新县","postcode":"435200"},{"name":"大冶市","postcode":"435100"}]},{"name":"十堰市","district":[{"name":"茅箭区","postcode":"442000"},{"name":"张湾区","postcode":"442000"},{"name":"郧县","postcode":"442500"},{"name":"郧西县","postcode":"442600"},{"name":"竹山县","postcode":"442200"},{"name":"竹溪县","postcode":"442300"},{"name":"房县","postcode":"442100"},{"name":"丹江口市","postcode":"442700"}]},{"name":"宜昌市","district":[{"name":"西陵区","postcode":"443000"},{"name":"伍家岗区","postcode":"443000"},{"name":"点军区","postcode":"443000"},{"name":"猇亭区","postcode":"443000"},{"name":"夷陵区","postcode":"443100"},{"name":"远安县","postcode":"444200"},{"name":"兴山县","postcode":"443700"},{"name":"秭归县","postcode":"443600"},{"name":"长阳土家族自治县","postcode":"443500"},{"name":"五峰土家族自治县","postcode":"443400"},{"name":"宜都市","postcode":"443000"},{"name":"当阳市","postcode":"444100"},{"name":"枝江市","postcode":"443200"}]},{"name":"襄阳市","district":[{"name":"襄城区","postcode":"441000"},{"name":"樊城区","postcode":"441000"},{"name":"襄州区","postcode":"441100"},{"name":"南漳县","postcode":"441500"},{"name":"谷城县","postcode":"441700"},{"name":"保康县","postcode":"441600"},{"name":"老河口市","postcode":"441800"},{"name":"枣阳市","postcode":"441200"},{"name":"宜城市","postcode":"441400"}]},{"name":"鄂州市","district":[{"name":"梁子湖区","postcode":"436000"},{"name":"华容区","postcode":"436000"},{"name":"鄂城区","postcode":"436000"}]},{"name":"荆门市","district":[{"name":"东宝区","postcode":"448000"},{"name":"掇刀区","postcode":"448000"},{"name":"京山县","postcode":"431800"},{"name":"沙洋县","postcode":"448200"},{"name":"钟祥市","postcode":"431900"}]},{"name":"孝感市","district":[{"name":"孝南区","postcode":"432100"},{"name":"孝昌县","postcode":"432900"},{"name":"大悟县","postcode":"432800"},{"name":"云梦县","postcode":"432500"},{"name":"应城市","postcode":"432400"},{"name":"安陆市","postcode":"432600"},{"name":"汉川市","postcode":"432300"}]},{"name":"荆州市","district":[{"name":"沙市区","postcode":"434000"},{"name":"荆州区","postcode":"434020"},{"name":"公安县","postcode":"434300"},{"name":"监利县","postcode":"433300"},{"name":"江陵县","postcode":"434100"},{"name":"石首市","postcode":"434400"},{"name":"洪湖市","postcode":"433200"},{"name":"松滋市","postcode":"434200"}]},{"name":"黄冈市","district":[{"name":"黄州区","postcode":"438000"},{"name":"团风县","postcode":"438000"},{"name":"红安县","postcode":"438400"},{"name":"罗田县","postcode":"438600"},{"name":"英山县","postcode":"438700"},{"name":"浠水县","postcode":"438200"},{"name":"蕲春县","postcode":"435300"},{"name":"黄梅县","postcode":"435500"},{"name":"麻城市","postcode":"438300"},{"name":"武穴市","postcode":"435400"}]},{"name":"咸宁市","district":[{"name":"咸安区","postcode":"437000"},{"name":"嘉鱼县","postcode":"437200"},{"name":"通城县","postcode":"437400"},{"name":"崇阳县","postcode":"437500"},{"name":"通山县","postcode":"437600"},{"name":"赤壁市","postcode":"437300"}]},{"name":"恩施土家族苗族自治州","district":[{"name":"恩施市","postcode":"445000"},{"name":"利川市","postcode":"445400"},{"name":"建始县","postcode":"445300"},{"name":"巴东县","postcode":"444300"},{"name":"宣恩县","postcode":"445500"},{"name":"咸丰县","postcode":"445600"},{"name":"来凤县","postcode":"445700"},{"name":"鹤峰县","postcode":"445800"}]},{"name":"仙桃市","district":[{"name":"仙桃市","postcode":"433000"}]},{"name":"潜江市","district":[{"name":"潜江市","postcode":"433100"}]},{"name":"天门市","district":[{"name":"天门市","postcode":"431700"}]},{"name":"神农架林区","district":[{"name":"神农架林区","postcode":"442400"}]}]},{"name":"湖南省","citys":[{"name":"长沙市","district":[{"name":"芙蓉区","postcode":"410000"},{"name":"天心区","postcode":"410000"},{"name":"岳麓区","postcode":"410000"},{"name":"开福区","postcode":"410000"},{"name":"雨花区","postcode":"410000"},{"name":"长沙县","postcode":"410100"},{"name":"望城县","postcode":"410200"},{"name":"宁乡县","postcode":"410600"},{"name":"浏阳市","postcode":"410300"}]},{"name":"株洲市","district":[{"name":"荷塘区","postcode":"412000"},{"name":"芦淞区","postcode":"412000"},{"name":"石峰区","postcode":"412000"},{"name":"天元区","postcode":"412000"},{"name":"株洲县","postcode":"412000"},{"name":"攸县","postcode":"412300"},{"name":"茶陵县","postcode":"412400"},{"name":"炎陵县","postcode":"412500"},{"name":"醴陵市","postcode":"412200"}]},{"name":"湘潭市","district":[{"name":"雨湖区","postcode":"411100"},{"name":"岳塘区","postcode":"411100"},{"name":"湘潭县","postcode":"411200"},{"name":"湘乡市","postcode":"411400"},{"name":"韶山市","postcode":"411300"}]},{"name":"衡阳市","district":[{"name":"珠晖区","postcode":"421000"},{"name":"石鼓区","postcode":"421000"},{"name":"雁峰区","postcode":"421000"},{"name":"蒸湘区","postcode":"421000"},{"name":"南岳区","postcode":"421000"},{"name":"衡阳县","postcode":"421200"},{"name":"衡南县","postcode":"421100"},{"name":"衡山县","postcode":"421300"},{"name":"衡东县","postcode":"421400"},{"name":"祁东县","postcode":"421600"},{"name":"耒阳市","postcode":"421800"},{"name":"常宁市","postcode":"421500"}]},{"name":"邵阳市","district":[{"name":"双清区","postcode":"422000"},{"name":"大祥区","postcode":"422000"},{"name":"北塔区","postcode":"422000"},{"name":"邵东县","postcode":"422800"},{"name":"新邵县","postcode":"422900"},{"name":"邵阳县","postcode":"422100"},{"name":"隆回县","postcode":"422200"},{"name":"洞口县","postcode":"422300"},{"name":"绥宁县","postcode":"422600"},{"name":"新宁县","postcode":"422700"},{"name":"城步苗族自治县","postcode":"422500"},{"name":"武冈市","postcode":"422400"}]},{"name":"岳阳市","district":[{"name":"岳阳楼区","postcode":"414000"},{"name":"云溪区","postcode":"414000"},{"name":"君山区","postcode":"414000"},{"name":"岳阳县","postcode":"414100"},{"name":"华容县","postcode":"414200"},{"name":"湘阴县","postcode":"410500"},{"name":"平江县","postcode":"410400"},{"name":"汨罗市","postcode":"414400"},{"name":"临湘市","postcode":"414300"}]},{"name":"常德市","district":[{"name":"武陵区","postcode":"415000"},{"name":"鼎城区","postcode":"415100"},{"name":"安乡县","postcode":"415600"},{"name":"汉寿县","postcode":"415900"},{"name":"澧县","postcode":"415500"},{"name":"临澧县","postcode":"415200"},{"name":"桃源县","postcode":"415700"},{"name":"石门县","postcode":"415300"},{"name":"津市市","postcode":"415400"}]},{"name":"张家界市","district":[{"name":"永定区","postcode":"427000"},{"name":"武陵源区","postcode":"427400"},{"name":"慈利县","postcode":"427200"},{"name":"桑植县","postcode":"427100"}]},{"name":"益阳市","district":[{"name":"资阳区","postcode":"413000"},{"name":"赫山区","postcode":"413000"},{"name":"南县","postcode":"413200"},{"name":"桃江县","postcode":"413400"},{"name":"安化县","postcode":"413500"},{"name":"沅江市","postcode":"413100"}]},{"name":"郴州市","district":[{"name":"北湖区","postcode":"423000"},{"name":"苏仙区","postcode":"423000"},{"name":"桂阳县","postcode":"424400"},{"name":"宜章县","postcode":"424200"},{"name":"永兴县","postcode":"423300"},{"name":"嘉禾县","postcode":"424500"},{"name":"临武县","postcode":"424300"},{"name":"汝城县","postcode":"424100"},{"name":"桂东县","postcode":"423500"},{"name":"安仁县","postcode":"423600"},{"name":"资兴市","postcode":"423400"}]},{"name":"永州市","district":[{"name":"芝山区","postcode":"425000"},{"name":"冷水滩区","postcode":"425000"},{"name":"祁阳县","postcode":"421700"},{"name":"东安县","postcode":"425900"},{"name":"双牌县","postcode":"425200"},{"name":"道县","postcode":"425300"},{"name":"江永县","postcode":"425400"},{"name":"宁远县","postcode":"425600"},{"name":"蓝山县","postcode":"425800"},{"name":"新田县","postcode":"425700"},{"name":"江华瑶族自治县","postcode":"425500"}]},{"name":"怀化市","district":[{"name":"鹤城区","postcode":"418000"},{"name":"中方县","postcode":"418000"},{"name":"沅陵县","postcode":"419600"},{"name":"辰溪县","postcode":"419500"},{"name":"溆浦县","postcode":"419300"},{"name":"会同县","postcode":"418300"},{"name":"麻阳苗族自治县","postcode":"419400"},{"name":"新晃侗族自治县","postcode":"419200"},{"name":"芷江侗族自治县","postcode":"419100"},{"name":"靖州苗族侗族自治县","postcode":"418400"},{"name":"通道侗族自治县","postcode":"418500"},{"name":"洪江市","postcode":"418200"}]},{"name":"娄底市","district":[{"name":"娄底市","postcode":"417000"},{"name":"冷水江市","postcode":"417500"},{"name":"涟源市","postcode":"417100"},{"name":"双峰县","postcode":"417700"},{"name":"新化县","postcode":"417600"}]},{"name":"湘西土家族苗族自治州","district":[{"name":"吉首市","postcode":"416000"},{"name":"泸溪县","postcode":"416100"},{"name":"凤凰县","postcode":"416200"},{"name":"花垣县","postcode":"416400"},{"name":"保靖县","postcode":"416500"},{"name":"古丈县","postcode":"416300"},{"name":"永顺县","postcode":"416700"},{"name":"龙山县","postcode":"416800"}]}]},{"name":"广东省","citys":[{"name":"广州市","district":[{"name":"东山区","postcode":"510000"},{"name":"荔湾区","postcode":"510000"},{"name":"越秀区","postcode":"510000"},{"name":"海珠区","postcode":"510000"},{"name":"天河区","postcode":"510000"},{"name":"芳村区","postcode":"510000"},{"name":"白云区","postcode":"510000"},{"name":"黄埔区","postcode":"510700"},{"name":"番禺区","postcode":"511400"},{"name":"花都区","postcode":"510800"},{"name":"增城市","postcode":"511300"},{"name":"从化市","postcode":"510900"}]},{"name":"韶关市","district":[{"name":"武江区","postcode":"512000"},{"name":"浈江区","postcode":"512000"},{"name":"曲江区","postcode":"512100"},{"name":"始兴县","postcode":"512500"},{"name":"仁化县","postcode":"512300"},{"name":"翁源县","postcode":"512600"},{"name":"乳源瑶族自治县","postcode":"512600"},{"name":"新丰县","postcode":"511100"},{"name":"乐昌市","postcode":"512200"},{"name":"南雄市","postcode":"512400"}]},{"name":"深圳市","district":[{"name":"罗湖区","postcode":"518000"},{"name":"福田区","postcode":"518000"},{"name":"南山区","postcode":"518000"},{"name":"宝安区","postcode":"518100"},{"name":"龙岗区","postcode":"518100"},{"name":"盐田区","postcode":"518000"}]},{"name":"珠海市","district":[{"name":"香洲区","postcode":"519000"},{"name":"斗门区","postcode":"519100"},{"name":"金湾区","postcode":"519090"}]},{"name":"汕头市","district":[{"name":"濠江区","postcode":"515000"},{"name":"龙湖区","postcode":"515000"},{"name":"金平区","postcode":"515000"},{"name":"潮南区","postcode":"515100"},{"name":"澄海区","postcode":"515800"},{"name":"潮阳区","postcode":"515100"},{"name":"南澳县","postcode":"515900"}]},{"name":"佛山市","district":[{"name":"禅城区","postcode":"528000"},{"name":"顺德区","postcode":"528000"},{"name":"南海区","postcode":"528200"},{"name":"三水区","postcode":"528100"},{"name":"高明区","postcode":"528500"}]},{"name":"江门市","district":[{"name":"蓬江区","postcode":"529000"},{"name":"江海区","postcode":"529000"},{"name":"台山市","postcode":"529200"},{"name":"新会区","postcode":"529100"},{"name":"开平市","postcode":"529300"},{"name":"鹤山市","postcode":"529700"},{"name":"恩平市","postcode":"529400"}]},{"name":"湛江市","district":[{"name":"赤坎区","postcode":"524000"},{"name":"霞山区","postcode":"524000"},{"name":"坡头区","postcode":"524000"},{"name":"麻章区","postcode":"524000"},{"name":"遂溪县","postcode":"524300"},{"name":"徐闻县","postcode":"524100"},{"name":"廉江市","postcode":"524400"},{"name":"雷州市","postcode":"524200"},{"name":"吴川市","postcode":"524500"}]},{"name":"茂名市","district":[{"name":"茂南区","postcode":"525000"},{"name":"茂港区","postcode":"525000"},{"name":"电白县","postcode":"525400"},{"name":"高州市","postcode":"525200"},{"name":"化州市","postcode":"525100"},{"name":"信宜市","postcode":"525300"}]},{"name":"肇庆市","district":[{"name":"端州区","postcode":"526000"},{"name":"鼎湖区","postcode":"526000"},{"name":"广宁县","postcode":"526300"},{"name":"怀集县","postcode":"526400"},{"name":"封开县","postcode":"526500"},{"name":"德庆县","postcode":"526600"},{"name":"高要市","postcode":"526100"},{"name":"四会市","postcode":"526200"}]},{"name":"惠州市","district":[{"name":"惠城区","postcode":"516000"},{"name":"博罗县","postcode":"516100"},{"name":"惠东县","postcode":"516300"},{"name":"龙门县","postcode":"516800"},{"name":"惠阳区","postcode":"516200"}]},{"name":"梅州市","district":[{"name":"梅江区","postcode":"514000"},{"name":"梅县","postcode":"514700"},{"name":"大埔县","postcode":"514200"},{"name":"丰顺县","postcode":"514300"},{"name":"五华县","postcode":"514400"},{"name":"平远县","postcode":"514600"},{"name":"蕉岭县","postcode":"514100"},{"name":"兴宁市","postcode":"514500"}]},{"name":"汕尾市","district":[{"name":"汕尾城区","postcode":"516600"},{"name":"海丰县","postcode":"516400"},{"name":"陆河县","postcode":"516700"},{"name":"陆丰市","postcode":"516500"}]},{"name":"河源市","district":[{"name":"源城区","postcode":"517000"},{"name":"紫金县","postcode":"517400"},{"name":"龙川县","postcode":"517300"},{"name":"连平县","postcode":"517100"},{"name":"和平县","postcode":"517200"},{"name":"东源县","postcode":"517500"}]},{"name":"阳江市","district":[{"name":"江城区","postcode":"529500"},{"name":"阳西县","postcode":"529800"},{"name":"阳东县","postcode":"529900"},{"name":"阳春市","postcode":"529600"}]},{"name":"清远市","district":[{"name":"清城区","postcode":"511500"},{"name":"佛冈县","postcode":"511600"},{"name":"阳山县","postcode":"513100"},{"name":"连山壮族瑶族自治县","postcode":"513200"},{"name":"连南瑶族自治县","postcode":"513300"},{"name":"清新县","postcode":"511800"},{"name":"英德市","postcode":"513000"},{"name":"连州市","postcode":"513400"}]},{"name":"东莞市","district":[{"name":"东莞市","postcode":"523000"}]},{"name":"中山市","district":[{"name":"中山市","postcode":"528400"}]},{"name":"潮州市","district":[{"name":"湘桥区","postcode":"521000"},{"name":"潮安县","postcode":"515600"},{"name":"饶平县","postcode":"515700"}]},{"name":"揭阳市","district":[{"name":"榕城区","postcode":"522000"},{"name":"揭东县","postcode":"515500"},{"name":"揭西县","postcode":"515400"},{"name":"惠来县","postcode":"515200"},{"name":"普宁市","postcode":"515300"}]},{"name":"云浮市","district":[{"name":"云城区","postcode":"527300"},{"name":"新兴县","postcode":"527400"},{"name":"郁南县","postcode":"527100"},{"name":"云安县","postcode":"527500"},{"name":"罗定市","postcode":"527200"}]}]},{"name":"广西","citys":[{"name":"南宁市","district":[{"name":"兴宁区","postcode":"530000"},{"name":"青秀区","postcode":"530000"},{"name":"西乡塘区","postcode":"530000"},{"name":"江南区","postcode":"530000"},{"name":"良庆区","postcode":"530200"},{"name":"邕宁区","postcode":"530200"},{"name":"武鸣县","postcode":"530100"},{"name":"隆安县","postcode":"532700"},{"name":"马山县","postcode":"530600"},{"name":"上林县","postcode":"530500"},{"name":"宾阳县","postcode":"530400"},{"name":"横县","postcode":"530300"}]},{"name":"柳州市","district":[{"name":"城中区","postcode":"545000"},{"name":"鱼峰区","postcode":"545000"},{"name":"柳南区","postcode":"545000"},{"name":"柳北区","postcode":"545000"},{"name":"柳江县","postcode":"545100"},{"name":"柳城县","postcode":"545200"},{"name":"鹿寨县","postcode":"545600"},{"name":"融安县","postcode":"545400"},{"name":"融水苗族自治县","postcode":"545300"},{"name":"三江侗族自治县","postcode":"545500"}]},{"name":"桂林市","district":[{"name":"秀峰区","postcode":"541000"},{"name":"叠彩区","postcode":"541000"},{"name":"象山区","postcode":"541000"},{"name":"七星区","postcode":"541000"},{"name":"雁山区","postcode":"541000"},{"name":"阳朔县","postcode":"541900"},{"name":"临桂县","postcode":"541100"},{"name":"灵川县","postcode":"541200"},{"name":"全州县","postcode":"541500"},{"name":"兴安县","postcode":"541300"},{"name":"永福县","postcode":"541800"},{"name":"灌阳县","postcode":"541600"},{"name":"龙胜各族自治县","postcode":"541700"},{"name":"资源县","postcode":"541400"},{"name":"平乐县","postcode":"542400"},{"name":"荔蒲县","postcode":"546600"},{"name":"恭城瑶族自治县","postcode":"542500"}]},{"name":"梧州市","district":[{"name":"万秀区","postcode":"543000"},{"name":"蝶山区","postcode":"543000"},{"name":"长洲区","postcode":"543000"},{"name":"苍梧县","postcode":"543100"},{"name":"藤县","postcode":"543300"},{"name":"蒙山县","postcode":"546700"},{"name":"岑溪市","postcode":"543200"}]},{"name":"北海市","district":[{"name":"海城区","postcode":"536000"},{"name":"银海区","postcode":"536000"},{"name":"铁山港区","postcode":"536000"},{"name":"合浦县","postcode":"536100"}]},{"name":"防城港市","district":[{"name":"港口区","postcode":"538000"},{"name":"防城区","postcode":"538000"},{"name":"上思县","postcode":"535500"},{"name":"东兴市","postcode":"538100"}]},{"name":"钦州市","district":[{"name":"钦南区","postcode":"535000"},{"name":"钦北区","postcode":"535000"},{"name":"浦北县","postcode":"535300"},{"name":"灵山县","postcode":"535400"}]},{"name":"贵港市","district":[{"name":"港北区","postcode":"537100"},{"name":"港南区","postcode":"537100"},{"name":"覃塘区","postcode":"537100"},{"name":"平南县","postcode":"537300"},{"name":"桂平市","postcode":"537200"}]},{"name":"玉林市","district":[{"name":"玉州区","postcode":"537000"},{"name":"容县","postcode":"537500"},{"name":"陆川县","postcode":"537700"},{"name":"博白县","postcode":"537600"},{"name":"兴业县","postcode":"537800"},{"name":"北流市","postcode":"537400"}]},{"name":"崇左市","district":[{"name":"江州区","postcode":"532200"},{"name":"凭祥市","postcode":"532600"},{"name":"扶绥县","postcode":"532100"},{"name":"宁明县","postcode":"532500"},{"name":"龙州县","postcode":"532400"},{"name":"大新县","postcode":"532300"},{"name":"天等县","postcode":"532800"}]},{"name":"来宾市","district":[{"name":"兴宾区","postcode":"546100"},{"name":"合山市","postcode":"546500"},{"name":"忻城县","postcode":"546200"},{"name":"象州县","postcode":"545800"},{"name":"武宣县","postcode":"545900"},{"name":"金秀瑶族自治县","postcode":"545700"}]},{"name":"贺州市","district":[{"name":"八步区","postcode":"552106"},{"name":"昭平县","postcode":"546800"},{"name":"钟山县","postcode":"542600"},{"name":"富川瑶族自治县","postcode":"542700"}]},{"name":"百色市","district":[{"name":"右江区","postcode":"533000"},{"name":"田阳县","postcode":"533600"},{"name":"田东县","postcode":"531500"},{"name":"平果县","postcode":"531400"},{"name":"德保县","postcode":"533700"},{"name":"靖西县","postcode":"533800"},{"name":"那坡县","postcode":"533900"},{"name":"凌云县","postcode":"533100"},{"name":"乐业县","postcode":"533200"},{"name":"田林县","postcode":"533300"},{"name":"隆林各族自治县","postcode":"533500"},{"name":"西林县","postcode":"533500"}]},{"name":"河池市","district":[{"name":"金城江区","postcode":"547000"},{"name":"宜州市","postcode":"546300"},{"name":"罗城仫佬族自治县","postcode":"546400"},{"name":"环江毛南族自治县","postcode":"547100"},{"name":"南丹县","postcode":"547200"},{"name":"天峨县","postcode":"547300"},{"name":"凤山县","postcode":"547600"},{"name":"东兰县","postcode":"547400"},{"name":"巴马瑶族自治县","postcode":"547500"},{"name":"都安瑶族自治县","postcode":"530700"},{"name":"大化瑶族自治县","postcode":"530800"}]}]},{"name":"海南省","citys":[{"name":"海口市","district":[{"name":"琼海市","postcode":"571400"},{"name":"儋州市","postcode":"571700"},{"name":"五指山市","postcode":"572200"},{"name":"文昌市","postcode":"571300"},{"name":"万宁市","postcode":"571500"},{"name":"东方市","postcode":"572600"},{"name":"定安县","postcode":"571200"},{"name":"屯昌县","postcode":"571600"},{"name":"澄迈县","postcode":"571900"},{"name":"临高县","postcode":"571800"},{"name":"白沙黎族自治县","postcode":"572800"},{"name":"昌江黎族自治县","postcode":"572700"},{"name":"乐东黎族自治县","postcode":"572500"},{"name":"陵水黎族自治县","postcode":"572400"},{"name":"保亭黎族苗族自治县","postcode":"572300"},{"name":"琼中黎族苗族自治县","postcode":"572900"},{"name":"龙华区","postcode":"570105"},{"name":"秀英区","postcode":"570100"},{"name":"琼山区","postcode":"571100"},{"name":"美兰区","postcode":"570203"}]},{"name":"三沙市","district":[{"name":"三沙市","postcode":"573199"}]},{"name":"三亚市","district":[{"name":"三亚市","postcode":"572000"}]}]},{"name":"重庆市","citys":[{"name":"重庆市","district":[{"name":"万州区","postcode":"404100"},{"name":"涪陵区","postcode":"408000"},{"name":"渝中区","postcode":"400000"},{"name":"大渡口区","postcode":"400000"},{"name":"江北区","postcode":"404100"},{"name":"沙坪坝区","postcode":"400000"},{"name":"九龙坡区","postcode":"400000"},{"name":"南岸区","postcode":"400000"},{"name":"北碚区","postcode":"400700"},{"name":"万盛区","postcode":"400800"},{"name":"双桥区","postcode":"400900"},{"name":"渝北区","postcode":"401120"},{"name":"巴南区","postcode":"401320"},{"name":"长寿区","postcode":"401220"},{"name":"綦江县","postcode":"401420"},{"name":"潼南县","postcode":"402660"},{"name":"铜梁县","postcode":"402560"},{"name":"大足县","postcode":"402360"},{"name":"荣昌县","postcode":"402460"},{"name":"璧山县","postcode":"402760"},{"name":"梁平县","postcode":"405200"},{"name":"城口县","postcode":"405900"},{"name":"丰都县","postcode":"408200"},{"name":"垫江县","postcode":"408300"},{"name":"武隆县","postcode":"408500"},{"name":"忠县","postcode":"404300"},{"name":"开县","postcode":"405400"},{"name":"云阳县","postcode":"404500"},{"name":"奉节县","postcode":"404600"},{"name":"巫山县","postcode":"404700"},{"name":"巫溪县","postcode":"405800"},{"name":"黔江区","postcode":"409000"},{"name":"石柱土家族自治县","postcode":"409100"},{"name":"秀山土家族苗族自治县","postcode":"409900"},{"name":"酉阳土家族苗族自治县","postcode":"409800"},{"name":"彭水苗族土家族自治县","postcode":"409600"},{"name":"江津区","postcode":"402260"},{"name":"合川区","postcode":"401520"},{"name":"永川区","postcode":"402160"},{"name":"南川区","postcode":"408400"}]}]},{"name":"四川省","citys":[{"name":"成都市","district":[{"name":"锦江区","postcode":"610000"},{"name":"青羊区","postcode":"610000"},{"name":"金牛区","postcode":"610000"},{"name":"武侯区","postcode":"610000"},{"name":"成华区","postcode":"610000"},{"name":"龙泉驿区","postcode":"610100"},{"name":"青白江区","postcode":"610300"},{"name":"金堂县","postcode":"610400"},{"name":"双流县","postcode":"610200"},{"name":"温江县","postcode":"611100"},{"name":"郫县","postcode":"611700"},{"name":"新都区","postcode":"610500"},{"name":"大邑县","postcode":"611300"},{"name":"蒲江县","postcode":"611600"},{"name":"新津县","postcode":"611400"},{"name":"都江堰市","postcode":"611800"},{"name":"彭州市","postcode":"610000"},{"name":"邛崃市","postcode":"611500"},{"name":"崇州市","postcode":"611200"}]},{"name":"自贡市","district":[{"name":"自流井区","postcode":"643000"},{"name":"贡井区","postcode":"643020"},{"name":"大安区","postcode":"643010"},{"name":"沿滩区","postcode":"643030"},{"name":"荣县","postcode":"643100"},{"name":"富顺县","postcode":"643200"}]},{"name":"攀枝花市","district":[{"name":"东区","postcode":"617000"},{"name":"西区","postcode":"617000"},{"name":"仁和区","postcode":"617000"},{"name":"米易县","postcode":"617200"},{"name":"盐边县","postcode":"617100"}]},{"name":"泸州市","district":[{"name":"江阳区","postcode":"646000"},{"name":"纳溪区","postcode":"646300"},{"name":"龙马潭区","postcode":"646000"},{"name":"泸县","postcode":"646100"},{"name":"合江县","postcode":"646200"},{"name":"叙永县","postcode":"646400"},{"name":"古蔺县","postcode":"646500"}]},{"name":"德阳市","district":[{"name":"旌阳区","postcode":"618000"},{"name":"中江县","postcode":"618300"},{"name":"罗江县","postcode":"618500"},{"name":"广汉市","postcode":"618300"},{"name":"什邡市","postcode":"618400"},{"name":"绵竹市","postcode":"618200"}]},{"name":"绵阳市","district":[{"name":"涪城区","postcode":"621000"},{"name":"游仙区","postcode":"621000"},{"name":"三台县","postcode":"621100"},{"name":"盐亭县","postcode":"621600"},{"name":"安县","postcode":"622650"},{"name":"梓潼县","postcode":"622150"},{"name":"北川县","postcode":"622750"},{"name":"平武县","postcode":"622550"},{"name":"江油市","postcode":"621700"}]},{"name":"广元市","district":[{"name":"利州区","postcode":"628000"},{"name":"元坝区","postcode":"628000"},{"name":"朝天区","postcode":"628000"},{"name":"旺苍县","postcode":"628200"},{"name":"青川县","postcode":"628100"},{"name":"剑阁县","postcode":"628300"},{"name":"苍溪县","postcode":"628400"}]},{"name":"遂宁市","district":[{"name":"船山区","postcode":"629000"},{"name":"安居区","postcode":"629000"},{"name":"蓬溪县","postcode":"629100"},{"name":"射洪县","postcode":"629200"},{"name":"大英县","postcode":"629300"}]},{"name":"内江市","district":[{"name":"市中区","postcode":"641000"},{"name":"东兴区","postcode":"641100"},{"name":"威远县","postcode":"642450"},{"name":"资中县","postcode":"641200"},{"name":"隆昌县","postcode":"642150"}]},{"name":"乐山市","district":[{"name":"市中区","postcode":"614000"},{"name":"沙湾区","postcode":"614900"},{"name":"五通桥区","postcode":"614800"},{"name":"金口河区","postcode":"614700"},{"name":"犍为县","postcode":"614400"},{"name":"井研县","postcode":"613100"},{"name":"夹江县","postcode":"614100"},{"name":"沐川县","postcode":"614500"},{"name":"峨边彝族自治县","postcode":"614300"},{"name":"马边彝族自治县","postcode":"614600"},{"name":"峨眉山市","postcode":"614200"}]},{"name":"南充市","district":[{"name":"顺庆区","postcode":"637000"},{"name":"高坪区","postcode":"637100"},{"name":"嘉陵区","postcode":"637500"},{"name":"南部县","postcode":"637300"},{"name":"营山县","postcode":"637700"},{"name":"蓬安县","postcode":"637800"},{"name":"仪陇县","postcode":"637600"},{"name":"西充县","postcode":"637200"},{"name":"阆中市","postcode":"637400"}]},{"name":"宜宾市","district":[{"name":"翠屏区","postcode":"644000"},{"name":"宜宾县","postcode":"644600"},{"name":"南溪县","postcode":"644100"},{"name":"江安县","postcode":"644200"},{"name":"长宁县","postcode":"644300"},{"name":"高县","postcode":"645150"},{"name":"珙县","postcode":"644500"},{"name":"筠连县","postcode":"645250"},{"name":"兴文县","postcode":"644400"},{"name":"屏山县","postcode":"645350"}]},{"name":"广安市","district":[{"name":"广安区","postcode":"638550"},{"name":"岳池县","postcode":"638300"},{"name":"武胜县","postcode":"638400"},{"name":"邻水县","postcode":"638500"},{"name":"华莹市","postcode":"638600"}]},{"name":"达州市","district":[{"name":"达州市","postcode":"635000"},{"name":"万源市","postcode":"636350"},{"name":"达县","postcode":"635000"},{"name":"宣汉县","postcode":"636150"},{"name":"开江县","postcode":"636250"},{"name":"大竹县","postcode":"635100"},{"name":"渠县","postcode":"635200"}]},{"name":"雅安市","district":[{"name":"雅安市","postcode":"625000"},{"name":"名山县","postcode":"625100"},{"name":"荥经县","postcode":"625200"},{"name":"汉源县","postcode":"625300"},{"name":"石棉县","postcode":"625400"},{"name":"天全县","postcode":"625500"},{"name":"芦山县","postcode":"625600"},{"name":"宝兴县","postcode":"625700"}]},{"name":"阿坝藏族羌族自治州","district":[{"name":"汶川县","postcode":"623000"},{"name":"理县","postcode":"623100"},{"name":"茂县","postcode":"623200"},{"name":"松潘县","postcode":"623300"},{"name":"九寨沟县","postcode":"623400"},{"name":"金川县","postcode":"624100"},{"name":"小金县","postcode":"624200"},{"name":"黑水县","postcode":"623500"},{"name":"马尔康县","postcode":"624000"},{"name":"壤塘县","postcode":"624300"},{"name":"阿坝县","postcode":"624600"},{"name":"若尔盖县","postcode":"624500"},{"name":"红原县","postcode":"624400"}]},{"name":"甘孜藏族自治州","district":[{"name":"康定县","postcode":"626000"},{"name":"泸定县","postcode":"626100"},{"name":"丹巴县","postcode":"626300"},{"name":"九龙县","postcode":"616200"},{"name":"雅江县","postcode":"627450"},{"name":"道孚县","postcode":"626400"},{"name":"炉霍县","postcode":"626500"},{"name":"甘孜县","postcode":"626700"},{"name":"新龙县","postcode":"626800"},{"name":"德格县","postcode":"627250"},{"name":"白玉县","postcode":"627150"},{"name":"石渠县","postcode":"627350"},{"name":"色达县","postcode":"626600"},{"name":"理塘县","postcode":"624300"},{"name":"巴塘县","postcode":"627650"},{"name":"乡城县","postcode":"627850"},{"name":"稻城县","postcode":"627750"},{"name":"得荣县","postcode":"627950"}]},{"name":"凉山彝族自治州","district":[{"name":"西昌市","postcode":"615000"},{"name":"木里藏族自治县","postcode":"615800"},{"name":"盐源县","postcode":"615700"},{"name":"德昌县","postcode":"615500"},{"name":"会理县","postcode":"615100"},{"name":"会东县","postcode":"615200"},{"name":"宁南县","postcode":"615400"},{"name":"普格县","postcode":"615300"},{"name":"布拖县","postcode":"615350"},{"name":"金阳县","postcode":"616250"},{"name":"昭觉县","postcode":"616150"},{"name":"喜德县","postcode":"616750"},{"name":"冕宁县","postcode":"615600"},{"name":"越西县","postcode":"616650"},{"name":"甘洛县","postcode":"616850"},{"name":"美姑县","postcode":"616450"},{"name":"雷波县","postcode":"616550"}]},{"name":"巴中市","district":[{"name":"巴中市","postcode":"636600"},{"name":"通江县","postcode":"636700"},{"name":"南江县","postcode":"635600"},{"name":"平昌县","postcode":"636400"}]},{"name":"眉山市","district":[{"name":"东坡区","postcode":"620010"},{"name":"仁寿县","postcode":"620500"},{"name":"彭山县","postcode":"620800"},{"name":"洪雅县","postcode":"620300"},{"name":"丹棱县","postcode":"620200"},{"name":"青神县","postcode":"620400"}]},{"name":"资阳市","district":[{"name":"资阳市","postcode":"641300"},{"name":"简阳市","postcode":"641400"},{"name":"安岳县","postcode":"642350"},{"name":"乐至县","postcode":"641500"}]}]},{"name":"贵州省","citys":[{"name":"贵阳市","district":[{"name":"南明区","postcode":"550000"},{"name":"云岩区","postcode":"550000"},{"name":"花溪区","postcode":"550000"},{"name":"乌当区","postcode":"550000"},{"name":"白云区","postcode":"550000"},{"name":"小河区","postcode":"550000"},{"name":"开阳县","postcode":"550300"},{"name":"息烽县","postcode":"551100"},{"name":"修文县","postcode":"550200"},{"name":"清镇市","postcode":"551400"}]},{"name":"六盘水市","district":[{"name":"钟山区","postcode":"553000"},{"name":"盘县","postcode":"561600"},{"name":"六枝特区","postcode":"553400"},{"name":"水城县","postcode":"553000"}]},{"name":"遵义市","district":[{"name":"红花岗区","postcode":"563000"},{"name":"汇川区","postcode":"563000"},{"name":"遵义县","postcode":"563100"},{"name":"桐梓县","postcode":"563200"},{"name":"绥阳县","postcode":"563300"},{"name":"正安县","postcode":"563400"},{"name":"道真仡佬族苗族自治县","postcode":"563500"},{"name":"务川仡佬族苗族自治县","postcode":"564300"},{"name":"凤冈县","postcode":"564200"},{"name":"湄潭县","postcode":"564100"},{"name":"余庆县","postcode":"564400"},{"name":"习水县","postcode":"564600"},{"name":"赤水市","postcode":"564700"},{"name":"仁怀市","postcode":"564500"}]},{"name":"铜仁市","district":[{"name":"铜仁市","postcode":"554300"},{"name":"江口县","postcode":"554400"},{"name":"玉屏侗族自治县","postcode":"554000"},{"name":"石阡县","postcode":"555100"},{"name":"思南县","postcode":"565100"},{"name":"印江土家族苗族自治县","postcode":"555200"},{"name":"德江县","postcode":"565200"},{"name":"沿河土家族自治县","postcode":"565300"},{"name":"松桃苗族自治县","postcode":"554100"},{"name":"万山特区","postcode":"554200"}]},{"name":"黔西南布依族苗族自治州","district":[{"name":"兴义市","postcode":"562400"},{"name":"兴仁县","postcode":"562300"},{"name":"普安县","postcode":"561500"},{"name":"晴隆县","postcode":"561400"},{"name":"贞丰县","postcode":"562200"},{"name":"望谟县","postcode":"552300"},{"name":"册亨县","postcode":"552200"},{"name":"安龙县","postcode":"552400"}]},{"name":"毕节市","district":[{"name":"毕节市","postcode":"551700"},{"name":"大方县","postcode":"551600"},{"name":"黔西县","postcode":"551500"},{"name":"金沙县","postcode":"551800"},{"name":"织金县","postcode":"552100"},{"name":"纳雍县","postcode":"553300"},{"name":"威宁彝族回族苗族自治县","postcode":"553100"},{"name":"赫章县","postcode":"553200"}]},{"name":"安顺市","district":[{"name":"安顺市","postcode":"561000"},{"name":"平坝县","postcode":"561100"},{"name":"普定县","postcode":"562100"},{"name":"关岭布依族苗族自治县","postcode":"561300"},{"name":"镇宁布依族苗族自治县","postcode":"561200"},{"name":"紫云苗族布依族自治县","postcode":"550800"}]},{"name":"黔东南苗族侗族自治州","district":[{"name":"凯里市","postcode":"556000"},{"name":"黄平县","postcode":"556100"},{"name":"施秉县","postcode":"556200"},{"name":"三穗县","postcode":"556500"},{"name":"镇远县","postcode":"557700"},{"name":"岑巩县","postcode":"557800"},{"name":"天柱县","postcode":"556600"},{"name":"锦屏县","postcode":"556700"},{"name":"剑河县","postcode":"556400"},{"name":"台江县","postcode":"556300"},{"name":"黎平县","postcode":"557300"},{"name":"榕江县","postcode":"557200"},{"name":"从江县","postcode":"557400"},{"name":"雷山县","postcode":"557100"},{"name":"麻江县","postcode":"557600"},{"name":"丹寨县","postcode":"557500"}]},{"name":"黔南布依族苗族自治州","district":[{"name":"都匀市","postcode":"558000"},{"name":"福泉市","postcode":"550500"},{"name":"荔波县","postcode":"558400"},{"name":"贵定县","postcode":"551300"},{"name":"瓮安县","postcode":"550400"},{"name":"独山县","postcode":"558200"},{"name":"平塘县","postcode":"558300"},{"name":"罗甸县","postcode":"550100"},{"name":"长顺县","postcode":"550700"},{"name":"龙里县","postcode":"551200"},{"name":"惠水县","postcode":"550600"},{"name":"三都水族自治县","postcode":"558100"}]}]},{"name":"云南省","citys":[{"name":"昆明市","district":[{"name":"五华区","postcode":"650000"},{"name":"盘龙区","postcode":"650000"},{"name":"官渡区","postcode":"650200"},{"name":"西山区","postcode":"650100"},{"name":"东川区","postcode":"654100"},{"name":"呈贡县","postcode":"650500"},{"name":"晋宁县","postcode":"650600"},{"name":"富民县","postcode":"650400"},{"name":"宜良县","postcode":"652100"},{"name":"石林彝族自治县","postcode":"652200"},{"name":"嵩明县","postcode":"651700"},{"name":"禄劝彝族苗族自治县","postcode":"651500"},{"name":"寻甸回族彝族自治县","postcode":"655200"},{"name":"安宁市","postcode":"650300"}]},{"name":"曲靖市","district":[{"name":"麒麟区","postcode":"655000"},{"name":"马龙县","postcode":"655100"},{"name":"陆良县","postcode":"655600"},{"name":"师宗县","postcode":"655700"},{"name":"罗平县","postcode":"655800"},{"name":"富源县","postcode":"655500"},{"name":"会泽县","postcode":"654200"},{"name":"沾益县","postcode":"655500"},{"name":"宣威市","postcode":"655400"}]},{"name":"玉溪市","district":[{"name":"红塔区","postcode":"653100"},{"name":"江川县","postcode":"652600"},{"name":"澄江县","postcode":"652500"},{"name":"通海县","postcode":"652700"},{"name":"华宁县","postcode":"652800"},{"name":"易门县","postcode":"651100"},{"name":"峨山彝族自治县","postcode":"653200"},{"name":"新平彝族傣族自治县","postcode":"653400"},{"name":"元江哈尼族彝族傣族自治县","postcode":"653300"}]},{"name":"昭通市","district":[{"name":"昭通市","postcode":"657000"},{"name":"鲁甸县","postcode":"657100"},{"name":"巧家县","postcode":"654600"},{"name":"盐津县","postcode":"657500"},{"name":"大关县","postcode":"657400"},{"name":"永善县","postcode":"657300"},{"name":"绥江县","postcode":"657700"},{"name":"镇雄县","postcode":"657200"},{"name":"彝良县","postcode":"657600"},{"name":"威信县","postcode":"657900"},{"name":"水富县","postcode":"657800"}]},{"name":"楚雄彝族自治州","district":[{"name":"楚雄市","postcode":"675000"},{"name":"双柏县","postcode":"675100"},{"name":"牟定县","postcode":"675500"},{"name":"南华县","postcode":"675200"},{"name":"姚安县","postcode":"675300"},{"name":"大姚县","postcode":"675400"},{"name":"永仁县","postcode":"651400"},{"name":"元谋县","postcode":"651300"},{"name":"武定县","postcode":"651600"},{"name":"禄丰县","postcode":"651200"}]},{"name":"红河哈尼族彝族自治州","district":[{"name":"个旧市","postcode":"661000"},{"name":"开远市","postcode":"661600"},{"name":"蒙自县","postcode":"661100"},{"name":"屏边苗族自治县","postcode":"661200"},{"name":"建水县","postcode":"654300"},{"name":"石屏县","postcode":"662200"},{"name":"弥勒县","postcode":"652300"},{"name":"泸西县","postcode":"652400"},{"name":"元阳县","postcode":"662400"},{"name":"红河县","postcode":"654400"},{"name":"金平苗族瑶族傣族自治县","postcode":"661500"}]},{"name":"文山壮族苗族自治州","district":[{"name":"绿春县","postcode":"662500"},{"name":"河口瑶族自治县","postcode":"661300"},{"name":"文山县","postcode":"663000"},{"name":"砚山县","postcode":"663100"},{"name":"西畴县","postcode":"663500"},{"name":"麻栗坡县","postcode":"663600"},{"name":"马关县","postcode":"663700"},{"name":"丘北县","postcode":"663200"},{"name":"广南县","postcode":"663300"},{"name":"富宁县","postcode":"663400"}]},{"name":"普洱市","district":[{"name":"思茅区","postcode":"665000"},{"name":"普洱哈尼族彝族自治县","postcode":"665100"},{"name":"墨江哈尼族自治县","postcode":"654800"},{"name":"景东彝族自治县","postcode":"676200"},{"name":"景谷傣族彝族自治县","postcode":"666400"},{"name":"镇沅彝族哈尼族拉祜族自治县","postcode":"666500"},{"name":"江城哈尼族彝族自治县","postcode":"665900"},{"name":"孟连傣族拉祜族佤族自治县","postcode":"665800"},{"name":"澜沧拉祜族自治县","postcode":"665600"},{"name":"西盟佤族自治县","postcode":"665700"}]},{"name":"西双版纳傣族自治州","district":[{"name":"景洪市","postcode":"666100"},{"name":"勐海县","postcode":"666200"},{"name":"勐腊县","postcode":"666300"}]},{"name":"大理白族自治州","district":[{"name":"大理市","postcode":"671000"},{"name":"漾濞彝族自治县","postcode":"672500"},{"name":"祥云县","postcode":"672100"},{"name":"宾川县","postcode":"671600"},{"name":"弥渡县","postcode":"675600"},{"name":"南涧彝族自治县","postcode":"675700"},{"name":"巍山彝族回族自治县","postcode":"672400"},{"name":"永平县","postcode":"672600"},{"name":"云龙县","postcode":"672700"},{"name":"洱源县","postcode":"671200"},{"name":"剑川县","postcode":"671300"},{"name":"鹤庆县","postcode":"671500"}]},{"name":"保山市","district":[{"name":"保山市","postcode":"678000"},{"name":"施甸县","postcode":"678200"},{"name":"腾冲县","postcode":"679100"},{"name":"龙陵县","postcode":"678300"},{"name":"昌宁县","postcode":"678100"}]},{"name":"德宏傣族景颇族自治州","district":[{"name":"芒市","postcode":"678400"},{"name":"瑞丽市","postcode":"678600"},{"name":"德宏州","postcode":"678400"},{"name":"梁河县","postcode":"679200"},{"name":"盈江县","postcode":"679300"},{"name":"陇川县","postcode":"678700"}]},{"name":"丽江市","district":[{"name":"古城区","postcode":"674100"},{"name":"玉龙纳西族自治县","postcode":"674100"},{"name":"永胜县","postcode":"674200"},{"name":"华坪县","postcode":"674800"},{"name":"宁蒗彝族自治县","postcode":"674300"}]},{"name":"怒江傈僳族自治州","district":[{"name":"泸水县","postcode":"673200"},{"name":"福贡县","postcode":"673400"},{"name":"贡山独龙族怒族自治县","postcode":"673500"},{"name":"兰坪白族普米族自治县","postcode":"671400"}]},{"name":"迪庆藏族自治州","district":[{"name":"香格里拉县","postcode":"674400"},{"name":"维西傈僳族自治县","postcode":"674600"},{"name":"德钦县","postcode":"674500"}]},{"name":"临沧市","district":[{"name":"临翔区","postcode":"677000"},{"name":"凤庆县","postcode":"675900"},{"name":"云县","postcode":"675800"},{"name":"永德县","postcode":"677600"},{"name":"镇康县","postcode":"677700"},{"name":"双江拉祜族佤族布朗族傣族自治县","postcode":"677300"},{"name":"耿马傣族佤族自治县","postcode":"677500"},{"name":"沧源佤族自治县","postcode":"677400"}]}]},{"name":"西藏","citys":[{"name":"拉萨市","district":[{"name":"城关区","postcode":"850000"},{"name":"林周县","postcode":"851600"},{"name":"当雄县","postcode":"851500"},{"name":"尼木县","postcode":"851600"},{"name":"曲水县","postcode":"850600"},{"name":"堆龙德庆县","postcode":"851400"},{"name":"达孜县","postcode":"850100"},{"name":"墨竹工卡县","postcode":"850200"}]},{"name":"昌都地区","district":[{"name":"昌都县","postcode":"854000"},{"name":"江达县","postcode":"854100"},{"name":"贡觉县","postcode":"854200"},{"name":"类乌齐县","postcode":"855600"},{"name":"丁青县","postcode":"855700"},{"name":"察雅县","postcode":"854300"},{"name":"八宿县","postcode":"854600"},{"name":"左贡县","postcode":"854400"},{"name":"芒康县","postcode":"854500"},{"name":"洛隆县","postcode":"855400"},{"name":"边坝县","postcode":"855500"}]},{"name":"山南地区","district":[{"name":"乃东县","postcode":"856100"},{"name":"扎囊县","postcode":"850800"},{"name":"贡嘎县","postcode":"850700"},{"name":"桑日县","postcode":"856200"},{"name":"琼结县","postcode":"856800"},{"name":"曲松县","postcode":"856300"},{"name":"措美县","postcode":"856900"},{"name":"洛扎县","postcode":"851200"},{"name":"加查县","postcode":"856400"},{"name":"隆子县","postcode":"856600"},{"name":"错那县","postcode":"856700"},{"name":"浪卡子县","postcode":"851100"}]},{"name":"日喀则地区","district":[{"name":"日喀则市","postcode":"857000"},{"name":"南木林县","postcode":"857100"},{"name":"江孜县","postcode":"857400"},{"name":"定日县","postcode":"858200"},{"name":"萨迦县","postcode":"857800"},{"name":"拉孜县","postcode":"858100"},{"name":"昂仁县","postcode":"858500"},{"name":"谢通门县","postcode":"858900"},{"name":"白朗县","postcode":"857300"},{"name":"仁布县","postcode":"857200"},{"name":"康马县","postcode":"857500"},{"name":"定结县","postcode":"857900"},{"name":"仲巴县","postcode":"858800"},{"name":"亚东县","postcode":"857600"},{"name":"吉隆县","postcode":"858700"},{"name":"聂拉木县","postcode":"858300"},{"name":"萨嘎县","postcode":"858600"},{"name":"岗巴县","postcode":"857700"}]},{"name":"那曲地区","district":[{"name":"那曲县","postcode":"852000"},{"name":"嘉黎县","postcode":"852400"},{"name":"比如县","postcode":"852300"},{"name":"聂荣县","postcode":"853500"},{"name":"安多县","postcode":"853400"},{"name":"申扎县","postcode":"853100"},{"name":"索县","postcode":"852200"},{"name":"班戈县","postcode":"852500"},{"name":"巴青县","postcode":"852100"},{"name":"尼玛县","postcode":"853200"}]},{"name":"阿里地区","district":[{"name":"普兰县","postcode":"859500"},{"name":"札达县","postcode":"859600"},{"name":"噶尔县","postcode":"859000"},{"name":"日土县","postcode":"859700"},{"name":"革吉县","postcode":"859100"},{"name":"改则县","postcode":"859200"},{"name":"措勤县","postcode":"859300"}]},{"name":"林芝地区","district":[{"name":"林芝县","postcode":"860100"},{"name":"工布江达县","postcode":"860200"},{"name":"米林县","postcode":"860500"},{"name":"墨脱县","postcode":"860700"},{"name":"波密县","postcode":"860300"},{"name":"察隅县","postcode":"860600"},{"name":"朗县","postcode":"860400"}]}]},{"name":"陕西省","citys":[{"name":"西安市","district":[{"name":"新城区","postcode":"710000"},{"name":"碑林区","postcode":"710000"},{"name":"莲湖区","postcode":"710000"},{"name":"灞桥区","postcode":"710000"},{"name":"未央区","postcode":"710000"},{"name":"雁塔区","postcode":"710000"},{"name":"阎良区","postcode":"710000"},{"name":"临潼区","postcode":"710600"},{"name":"长安区","postcode":"710000"},{"name":"蓝田县","postcode":"710500"},{"name":"周至县","postcode":"710400"},{"name":"户县","postcode":"710300"},{"name":"高陵县","postcode":"710200"}]},{"name":"铜川市","district":[{"name":"王益区","postcode":"727000"},{"name":"印台区","postcode":"727007"},{"name":"耀州区","postcode":"727100"},{"name":"宜君县","postcode":"727200"}]},{"name":"宝鸡市","district":[{"name":"渭滨区","postcode":"721000"},{"name":"金台区","postcode":"721000"},{"name":"陈仓区","postcode":"721300"},{"name":"凤翔县","postcode":"721400"},{"name":"岐山县","postcode":"722400"},{"name":"扶风县","postcode":"722200"},{"name":"眉县","postcode":"722300"},{"name":"陇县","postcode":"721200"},{"name":"千阳县","postcode":"721100"},{"name":"麟游县","postcode":"721500"},{"name":"凤县","postcode":"721700"},{"name":"太白县","postcode":"721600"}]},{"name":"咸阳市","district":[{"name":"秦都区","postcode":"712000"},{"name":"杨陵区","postcode":"712100"},{"name":"渭城区","postcode":"712000"},{"name":"三原县","postcode":"713800"},{"name":"泾阳县","postcode":"713700"},{"name":"乾县","postcode":"713300"},{"name":"礼泉县","postcode":"713200"},{"name":"永寿县","postcode":"713400"},{"name":"彬县","postcode":"713500"},{"name":"长武县","postcode":"713600"},{"name":"旬邑县","postcode":"711300"},{"name":"淳化县","postcode":"711200"},{"name":"武功县","postcode":"712200"},{"name":"兴平市","postcode":"713100"}]},{"name":"渭南市","district":[{"name":"临渭区","postcode":"714000"},{"name":"华县","postcode":"714100"},{"name":"潼关县","postcode":"714300"},{"name":"大荔县","postcode":"715100"},{"name":"合阳县","postcode":"715300"},{"name":"澄城县","postcode":"715200"},{"name":"蒲城县","postcode":"715500"},{"name":"白水县","postcode":"715600"},{"name":"富平县","postcode":"711700"},{"name":"韩城市","postcode":"715400"},{"name":"华阴市","postcode":"714200"}]},{"name":"延安市","district":[{"name":"宝塔区","postcode":"716000"},{"name":"延长县","postcode":"717100"},{"name":"延川县","postcode":"717200"},{"name":"子长县","postcode":"717300"},{"name":"安塞县","postcode":"717400"},{"name":"志丹县","postcode":"717500"},{"name":"吴旗县","postcode":"717600"},{"name":"甘泉县","postcode":"716100"},{"name":"富县","postcode":"727500"},{"name":"洛川县","postcode":"727400"},{"name":"宜川县","postcode":"716200"},{"name":"黄龙县","postcode":"715700"},{"name":"黄陵县","postcode":"727300"}]},{"name":"汉中市","district":[{"name":"汉台区","postcode":"723000"},{"name":"南郑县","postcode":"723100"},{"name":"城固县","postcode":"723200"},{"name":"洋县","postcode":"723300"},{"name":"西乡县","postcode":"723500"},{"name":"勉县","postcode":"724200"},{"name":"宁强县","postcode":"724400"},{"name":"略阳县","postcode":"724300"},{"name":"镇巴县","postcode":"723600"},{"name":"留坝县","postcode":"724100"},{"name":"佛坪县","postcode":"723400"}]},{"name":"安康市","district":[{"name":"安康市","postcode":"725000"},{"name":"汉阴县","postcode":"725100"},{"name":"石泉县","postcode":"725200"},{"name":"宁陕县","postcode":"711600"},{"name":"紫阳县","postcode":"725300"},{"name":"岚皋县","postcode":"725400"},{"name":"平利县","postcode":"725500"},{"name":"镇坪县","postcode":"725600"},{"name":"旬阳县","postcode":"725700"},{"name":"白河县","postcode":"725800"}]},{"name":"商洛市","district":[{"name":"商州区","postcode":"726000"},{"name":"洛南县","postcode":"726100"},{"name":"丹凤县","postcode":"726200"},{"name":"商南县","postcode":"726300"},{"name":"山阳县","postcode":"726400"},{"name":"镇安县","postcode":"711500"},{"name":"柞水县","postcode":"711400"}]},{"name":"榆林市","district":[{"name":"榆林市","postcode":"719000"},{"name":"神木县","postcode":"719300"},{"name":"府谷县","postcode":"719400"},{"name":"横山县","postcode":"719200"},{"name":"靖边县","postcode":"718500"},{"name":"定边县","postcode":"718600"},{"name":"绥德县","postcode":"718000"},{"name":"米脂县","postcode":"718100"},{"name":"佳县","postcode":"719200"},{"name":"吴堡县","postcode":"718200"},{"name":"清涧县","postcode":"718300"},{"name":"子洲县","postcode":"718400"}]}]},{"name":"甘肃省","citys":[{"name":"兰州市","district":[{"name":"城关区","postcode":"730000"},{"name":"七里河区","postcode":"730050"},{"name":"西固区","postcode":"730060"},{"name":"安宁区","postcode":"730070"},{"name":"红古区","postcode":"730080"},{"name":"永登县","postcode":"730300"},{"name":"皋兰县","postcode":"730200"},{"name":"榆中县","postcode":"730100"}]},{"name":"嘉峪关市","district":[{"name":"嘉峪关市","postcode":"735100"}]},{"name":"金昌市","district":[{"name":"金川区","postcode":"737100"},{"name":"永昌县","postcode":"737200"}]},{"name":"白银市","district":[{"name":"白银区","postcode":"730900"},{"name":"平川区","postcode":"730900"},{"name":"靖远县","postcode":"730600"},{"name":"会宁县","postcode":"730700"},{"name":"景泰县","postcode":"730400"}]},{"name":"天水市","district":[{"name":"秦州区","postcode":"741000"},{"name":"麦积区","postcode":"741020"},{"name":"清水县","postcode":"741400"},{"name":"秦安县","postcode":"741600"},{"name":"甘谷县","postcode":"741200"},{"name":"武山县","postcode":"741300"},{"name":"张家川回族自治县","postcode":"741500"}]},{"name":"酒泉市","district":[{"name":"玉门市","postcode":"735200"},{"name":"酒泉市","postcode":"735000"},{"name":"敦煌市","postcode":"736200"},{"name":"金塔县","postcode":"735300"},{"name":"肃北蒙古族自治县","postcode":"736300"},{"name":"阿克塞哈萨克族自治县","postcode":"736400"},{"name":"安西县","postcode":"736100"}]},{"name":"张掖市","district":[{"name":"张掖市","postcode":"734000"},{"name":"肃南裕固族自治县","postcode":"734400"},{"name":"民乐县","postcode":"734500"},{"name":"临泽县","postcode":"734200"},{"name":"高台县","postcode":"734300"},{"name":"山丹县","postcode":"734100"}]},{"name":"武威市","district":[{"name":"武威市","postcode":"733000"},{"name":"民勤县","postcode":"733300"},{"name":"古浪县","postcode":"733100"},{"name":"天祝藏族自治县","postcode":"733200"}]},{"name":"定西市","district":[{"name":"安定区","postcode":"743000"},{"name":"通渭县","postcode":"743300"},{"name":"陇西县","postcode":"748100"},{"name":"渭源县","postcode":"748200"},{"name":"临洮县","postcode":"730500"},{"name":"漳县","postcode":"748300"},{"name":"岷县","postcode":"748400"}]},{"name":"陇南市","district":[{"name":"武都区","postcode":"746000"},{"name":"宕昌县","postcode":"748500"},{"name":"成县","postcode":"742500"},{"name":"康县","postcode":"746500"},{"name":"文县","postcode":"746400"},{"name":"西和县","postcode":"742100"},{"name":"礼县","postcode":"742200"},{"name":"两当县","postcode":"742400"},{"name":"徽县","postcode":"742300"}]},{"name":"平凉市","district":[{"name":"平凉市","postcode":"744000"},{"name":"泾川县","postcode":"744300"},{"name":"灵台县","postcode":"744400"},{"name":"崇信县","postcode":"744200"},{"name":"华亭县","postcode":"744100"},{"name":"庄浪县","postcode":"744600"},{"name":"静宁县","postcode":"743400"}]},{"name":"庆阳市","district":[{"name":"西峰区","postcode":"745000"},{"name":"庆阳县","postcode":"745100"},{"name":"环县","postcode":"745700"},{"name":"华池县","postcode":"745600"},{"name":"合水县","postcode":"745400"},{"name":"正宁县","postcode":"745300"},{"name":"宁县","postcode":"745200"},{"name":"镇原县","postcode":"744500"}]},{"name":"临夏回族自治州","district":[{"name":"临夏市","postcode":"731100"},{"name":"临夏县","postcode":"731800"},{"name":"康乐县","postcode":"731500"},{"name":"永靖县","postcode":"731600"},{"name":"广河县","postcode":"731300"},{"name":"和政县","postcode":"731200"},{"name":"东乡族自治县","postcode":"731400"},{"name":"积石山保安族东乡族撒拉族自治县","postcode":"731700"}]},{"name":"甘南藏族自治州","district":[{"name":"合作市","postcode":"747000"},{"name":"临潭县","postcode":"747500"},{"name":"卓尼县","postcode":"747600"},{"name":"舟曲县","postcode":"746300"},{"name":"迭部县","postcode":"747400"},{"name":"玛曲县","postcode":"747300"},{"name":"碌曲县","postcode":"747200"},{"name":"夏河县","postcode":"747100"}]}]},{"name":"青海省","citys":[{"name":"西宁市","district":[{"name":"城东区","postcode":"810000"},{"name":"城中区","postcode":"810000"},{"name":"城西区","postcode":"810000"},{"name":"城北区","postcode":"810000"},{"name":"大通回族土族自治县","postcode":"810100"}]},{"name":"海东地区","district":[{"name":"平安县","postcode":"810600"},{"name":"民和回族土族自治县","postcode":"810800"},{"name":"乐都县","postcode":"810700"},{"name":"湟中县","postcode":"811600"},{"name":"湟源县","postcode":"812100"},{"name":"互助土族自治县","postcode":"810500"},{"name":"化隆回族自治县","postcode":"810900"},{"name":"循化撒拉族自治县","postcode":"811100"}]},{"name":"海北藏族自治州","district":[{"name":"门源回族自治县","postcode":"810300"},{"name":"祁连县","postcode":"810400"},{"name":"海晏县","postcode":"812200"},{"name":"刚察县","postcode":"812300"}]},{"name":"黄南藏族自治州","district":[{"name":"同仁县","postcode":"811300"},{"name":"尖扎县","postcode":"811200"},{"name":"泽库县","postcode":"811400"},{"name":"河南蒙古族自治县","postcode":"811500"}]},{"name":"海南藏族自治州","district":[{"name":"共和县","postcode":"813000"},{"name":"同德县","postcode":"813200"},{"name":"贵德县","postcode":"811700"},{"name":"兴海县","postcode":"813300"},{"name":"贵南县","postcode":"813100"}]},{"name":"果洛藏族自治州","district":[{"name":"玛沁县","postcode":"814000"},{"name":"班玛县","postcode":"814300"},{"name":"甘德县","postcode":"814100"},{"name":"达日县","postcode":"814200"},{"name":"久治县","postcode":"624700"},{"name":"玛多县","postcode":"813500"}]},{"name":"玉树藏族自治州","district":[{"name":"玉树县","postcode":"815000"},{"name":"杂多县","postcode":"815300"},{"name":"称多县","postcode":"815100"},{"name":"治多县","postcode":"815400"},{"name":"囊谦县","postcode":"815200"},{"name":"曲麻莱县","postcode":"815500"}]},{"name":"海西蒙古族藏族自治州","district":[{"name":"格尔木市","postcode":"816000"},{"name":"德令哈市","postcode":"817000"},{"name":"乌兰县","postcode":"817100"},{"name":"都兰县","postcode":"816100"},{"name":"天峻县","postcode":"817200"}]}]},{"name":"宁夏","citys":[{"name":"银川市","district":[{"name":"兴庆区","postcode":"750000"},{"name":"西夏区","postcode":"750000"},{"name":"金凤区","postcode":"750000"},{"name":"永宁县","postcode":"750100"},{"name":"贺兰县","postcode":"750200"},{"name":"灵武市","postcode":"751400"}]},{"name":"石嘴山市","district":[{"name":"大武口区","postcode":"753000"},{"name":"惠农区","postcode":"753600"},{"name":"平罗县","postcode":"753400"}]},{"name":"吴忠市","district":[{"name":"利通区","postcode":"751100"},{"name":"红寺堡开发区","postcode":"751900"},{"name":"盐池县","postcode":"751500"},{"name":"同心县","postcode":"751300"},{"name":"青铜峡市","postcode":"751600"}]},{"name":"固原市","district":[{"name":"原州区","postcode":"756000"},{"name":"西吉县","postcode":"756200"},{"name":"隆德县","postcode":"756300"},{"name":"泾源县","postcode":"756400"},{"name":"彭阳县","postcode":"756500"}]},{"name":"中卫市","district":[{"name":"沙坡头区","postcode":"751700"},{"name":"中宁县","postcode":"751200"},{"name":"海原县","postcode":"751800"}]}]},{"name":"新疆","citys":[{"name":"乌鲁木齐市","district":[{"name":"天山区","postcode":"830002"},{"name":"沙依巴克区","postcode":"830000"},{"name":"新市区","postcode":"830001"},{"name":"水磨沟区","postcode":"830017"},{"name":"头屯河区","postcode":"830022"},{"name":"达坂城区","postcode":"830039"},{"name":"米东区","postcode":"831400"},{"name":"乌鲁木齐县","postcode":"830063"}]},{"name":"克拉玛依市","district":[{"name":"独山子区","postcode":"838600"},{"name":"克拉玛依区","postcode":"834000"},{"name":"白碱滩区","postcode":"834000"},{"name":"乌尔禾区","postcode":"834000"}]},{"name":"吐鲁番地区","district":[{"name":"吐鲁番市","postcode":"838000"},{"name":"鄯善县","postcode":"838200"},{"name":"托克逊县","postcode":"838100"}]},{"name":"哈密地区","district":[{"name":"哈密市","postcode":"839000"},{"name":"巴里坤哈萨克自治县","postcode":"839200"},{"name":"伊吾县","postcode":"839300"}]},{"name":"昌吉回族自治州","district":[{"name":"昌吉市","postcode":"831100"},{"name":"阜康市","postcode":"831500"},{"name":"呼图壁县","postcode":"831200"},{"name":"玛纳斯县","postcode":"832200"},{"name":"奇台县","postcode":"831800"},{"name":"吉木萨尔县","postcode":"831700"},{"name":"木垒哈萨克自治县","postcode":"831900"}]},{"name":"博尔塔拉蒙古自治州","district":[{"name":"博乐市","postcode":"833400"},{"name":"精河县","postcode":"833300"},{"name":"温泉县","postcode":"833500"}]},{"name":"巴音郭楞蒙古自治州","district":[{"name":"库尔勒市","postcode":"841000"},{"name":"轮台县","postcode":"841600"},{"name":"尉犁县","postcode":"841500"},{"name":"若羌县","postcode":"841800"},{"name":"且末县","postcode":"841900"},{"name":"焉耆回族自治县","postcode":"841100"},{"name":"和静县","postcode":"841300"},{"name":"和硕县","postcode":"841200"},{"name":"博湖县","postcode":"841400"}]},{"name":"阿克苏地区","district":[{"name":"阿克苏市","postcode":"843000"},{"name":"温宿县","postcode":"843100"},{"name":"库车县","postcode":"842000"},{"name":"沙雅县","postcode":"842200"},{"name":"新和县","postcode":"842100"},{"name":"拜城县","postcode":"842300"},{"name":"乌什县","postcode":"843400"},{"name":"阿瓦提县","postcode":"843200"},{"name":"柯坪县","postcode":"843600"}]},{"name":"克孜勒苏柯尔克孜自治州","district":[{"name":"阿图什市","postcode":"845350"},{"name":"阿克陶县","postcode":"845550"},{"name":"阿合奇县","postcode":"843500"},{"name":"乌恰县","postcode":"845450"}]},{"name":"喀什地区","district":[{"name":"喀什市","postcode":"844000"},{"name":"疏附县","postcode":"844100"},{"name":"疏勒县","postcode":"844200"},{"name":"英吉沙县","postcode":"844500"},{"name":"泽普县","postcode":"844800"},{"name":"莎车县","postcode":"844700"},{"name":"叶城县","postcode":"844900"},{"name":"麦盖提县","postcode":"844600"},{"name":"岳普湖县","postcode":"844400"},{"name":"伽师县","postcode":"844300"},{"name":"巴楚县","postcode":"843800"},{"name":"塔什库尔干塔吉克自治县","postcode":"845250"}]},{"name":"和田地区","district":[{"name":"和田市","postcode":"848000"},{"name":"和田县","postcode":"848000"},{"name":"墨玉县","postcode":"848100"},{"name":"皮山县","postcode":"845150"},{"name":"洛浦县","postcode":"848200"},{"name":"策勒县","postcode":"848300"},{"name":"于田县","postcode":"848400"},{"name":"民丰县","postcode":"848500"}]},{"name":"伊犁哈萨克自治州","district":[{"name":"奎屯市","postcode":"833200"},{"name":"伊宁市","postcode":"835000"},{"name":"伊宁县","postcode":"835100"},{"name":"察布查尔锡伯自治县","postcode":"835300"},{"name":"霍城县","postcode":"835200"},{"name":"巩留县","postcode":"835400"},{"name":"新源县","postcode":"835800"},{"name":"昭苏县","postcode":"835600"},{"name":"特克斯县","postcode":"835500"},{"name":"尼勒克县","postcode":"835700"}]},{"name":"塔城地区","district":[{"name":"塔城市","postcode":"834300"},{"name":"乌苏市","postcode":"833300"},{"name":"额敏县","postcode":"834600"},{"name":"沙湾县","postcode":"832100"},{"name":"托里县","postcode":"834500"},{"name":"裕民县","postcode":"834800"},{"name":"和布克赛尔蒙古自治县","postcode":"834400"}]},{"name":"阿勒泰地区","district":[{"name":"阿勒泰市","postcode":"836500"},{"name":"布尔津县","postcode":"836600"},{"name":"富蕴县","postcode":"836100"},{"name":"福海县","postcode":"836400"},{"name":"哈巴河县","postcode":"836700"},{"name":"青河县","postcode":"836200"},{"name":"吉木乃县","postcode":"836800"}]},{"name":"石河子市","district":[{"name":"石河子市","postcode":"832000"}]},{"name":"阿拉尔市","district":[{"name":"阿拉尔市","postcode":"843300"}]},{"name":"图木舒克市","district":[{"name":"图木舒克市","postcode":"844000"}]},{"name":"五家渠市","district":[{"name":"五家渠市","postcode":"831300"}]},{"name":"亳州市","district":[{"name":"亳州市区","postcode":"236800"}]},{"name":"随州市","district":[{"name":"随州市区","postcode":"441300"}]}]}]